longitude,latitude,streetAddress,Country,State,County,City,zipCode,totalInsuredValue,Construction_Class_Scheme,Construction_Class,Occupancy_Type_Scheme,Occupancy_Type
-122.661758,38.224773,1 BIXBY CT,US,CA,SONOMA COUNTY,PETALUMA,94952,15693,ISO,Unknown,ATC,Light Fabrication and Assembly
-122.607552,38.253986,10 BOREAL PL,US,CA,SONOMA COUNTY,PETALUMA,94954,11780,ISO,Unknown,ATC,Light Fabrication and Assembly
-121.694321,38.161709,100 GARDINER WAY,US,CA,SOLANO COUNTY,RIO VISTA,94571,17205,ISO,Unknown,ATC,Light Fabrication and Assembly
-117.586021,34.123577,10049 LOMITA DR,US,CA,SAN BERNARDINO COUNTY,ALTA LOMA,91701,13349,ISO,Unknown,ATC,Light Fabrication and Assembly
-117.585831,34.119762,10051 IRONWOOD ST,US,CA,SAN BERNARDINO COUNTY,RCH CUCAMONGA,91730,26765,ISO,Unknown,ATC,Light Fabrication and Assembly
-117.585564,34.119762,10061 IRONWOOD ST,US,CA,SAN BERNARDINO COUNTY,RCH CUCAMONGA,91730,18180,ISO,Unknown,ATC,Light Fabrication and Assembly
-117.584457,34.110519,10114 EFFEN ST,US,CA,SAN BERNARDINO COUNTY,RCH CUCAMONGA,91730,13765,ISO,Unknown,ATC,Light Fabrication and Assembly
-122.611298,38.237644,1012 ASPEN WAY,US,CA,SONOMA COUNTY,PETALUMA,94954,22392,ISO,Unknown,ATC,Light Fabrication and Assembly
-117.583488,34.125816,10155 LA VINE ST,US,CA,SAN BERNARDINO COUNTY,RANCHO CUCAMONGA,91701,22027,ISO,Unknown,ATC,Light Fabrication and Assembly
-117.583511,34.138905,10159 ORANGE ST,US,CA,SAN BERNARDINO COUNTY,RANCHO CUCAMONGA,91737,13651,ISO,Unknown,ATC,Light Fabrication and Assembly
-122.606003,38.243450,1017 CRINELLA DR,US,CA,SONOMA COUNTY,PETALUMA,94954,12639,ISO,Unknown,ATC,Light Fabrication and Assembly
-122.611244,38.237278,1017 SAINT FRANCIS DR,US,CA,SONOMA COUNTY,PETALUMA,94954,12652,ISO,Unknown,ATC,Light Fabrication and Assembly
-117.582870,34.115749,10183 CANDLEWOOD ST,US,CA,SAN BERNARDINO COUNTY,RANCHO CUCAMONGA,91730,13436,ISO,Unknown,ATC,Light Fabrication and Assembly
-117.582802,34.110069,10189 EFFEN ST,US,CA,SAN BERNARDINO COUNTY,RANCHO CUCAMONGA,91730,13464,ISO,Unknown,ATC,Light Fabrication and Assembly
-117.582642,34.112038,10196 ASHFORD ST,US,CA,SAN BERNARDINO COUNTY,RCH CUCAMONGA,91730,13642,ISO,Unknown,ATC,Light Fabrication and Assembly
-122.625603,38.221195,1021 MCNEAR AVE,US,CA,SONOMA COUNTY,PETALUMA,94952,10069,ISO,Unknown,ATC,Light Fabrication and Assembly
-118.954239,34.160370,1021 TAPIES CT,US,CA,VENTURA COUNTY,NEWBURY PARK,91320,20075,ISO,Unknown,ATC,Light Fabrication and Assembly
-118.137253,33.956619,10214 WILEY BURKE AVE,US,CA,LOS ANGELES COUNTY,DOWNEY,90241,14441,ISO,Unknown,ATC,Light Fabrication and Assembly
-117.582100,34.125835,10221 LA VINE ST,US,CA,SAN BERNARDINO COUNTY,RANCHO CUCAMONGA,91701,18910,ISO,Unknown,ATC,Light Fabrication and Assembly
-117.581985,34.126286,10226 LA VINE ST,US,CA,SAN BERNARDINO COUNTY,RCH CUCAMONGA,91701,25655,ISO,Unknown,ATC,Light Fabrication and Assembly
-122.610909,38.237087,1025 SAINT FRANCIS DR,US,CA,SONOMA COUNTY,PETALUMA,94954,11628,ISO,Unknown,ATC,Light Fabrication and Assembly
-117.582016,34.116020,10259 CANDLEWOOD ST,US,CA,SAN BERNARDINO COUNTY,RANCHO CUCAMONGA,91730,23745,ISO,Unknown,ATC,Light Fabrication and Assembly
-117.581169,34.125835,10265 LA VINE ST,US,CA,SAN BERNARDINO COUNTY,ALTA LOMA,91701,19714,ISO,Unknown,ATC,Light Fabrication and Assembly
-117.581123,34.110065,10269 EFFEN ST,US,CA,SAN BERNARDINO COUNTY,RCH CUCAMONGA,91730,15359,ISO,Unknown,ATC,Light Fabrication and Assembly
-117.581123,34.109051,10270 STAFFORD ST,US,CA,SAN BERNARDINO COUNTY,RANCHO CUCAMONGA,91730,15789,ISO,Unknown,ATC,Light Fabrication and Assembly
-119.688118,36.626087,1030 OAK CT,US,CA,FRESNO COUNTY,FOWLER,93625,19190,ISO,Unknown,ATC,Light Fabrication and Assembly
-117.579346,34.120323,10338 IVY CT,US,CA,SAN BERNARDINO COUNTY,RCH CUCAMONGA,91730,19696,ISO,Unknown,ATC,Light Fabrication and Assembly
-119.744643,36.322809,10355 16TH AVE,US,CA,KINGS COUNTY,LEMOORE,93245,25227,ISO,Unknown,ATC,Light Fabrication and Assembly
-118.955910,34.159176,1037 ROTELLA ST,US,CA,VENTURA COUNTY,NEWBURY PARK,91320,13644,ISO,Unknown,ATC,Light Fabrication and Assembly
-122.641670,38.259914,104 MARVIN CT,US,CA,SONOMA COUNTY,PETALUMA,94954,8636,ISO,Unknown,ATC,Light Fabrication and Assembly
-118.861252,34.213287,1040 CALLE NOGAL,US,CA,VENTURA COUNTY,THOUSAND OAKS,91360,11070,ISO,Unknown,ATC,Light Fabrication and Assembly
-117.578270,34.129559,10405 HOLLY ST,US,CA,SAN BERNARDINO COUNTY,ALTA LOMA,91701,26106,ISO,Unknown,ATC,Light Fabrication and Assembly
-118.861023,34.200661,1043 WAVERLY HEIGHTS DR,US,CA,VENTURA COUNTY,THOUSAND OAKS,91360,27297,ISO,Unknown,ATC,Light Fabrication and Assembly
-117.577324,34.117146,10440 BALSA ST,US,CA,SAN BERNARDINO COUNTY,RANCHO CUCAMONGA,91730,14995,ISO,Unknown,ATC,Light Fabrication and Assembly
-117.577293,34.117439,10441 PALO ALTO ST,US,CA,SAN BERNARDINO COUNTY,RANCHO CUCAMONGA,91730,17417,ISO,Unknown,ATC,Light Fabrication and Assembly
-117.577248,34.121841,10445 CORDON DR,US,CA,SAN BERNARDINO COUNTY,ALTA LOMA,91701,19004,ISO,Unknown,ATC,Light Fabrication and Assembly
-117.576904,34.117146,10458 BALSA ST,US,CA,SAN BERNARDINO COUNTY,RCH CUCAMONGA,91730,9624,ISO,Unknown,ATC,Light Fabrication and Assembly
-122.576210,38.110645,1048 6TH ST,US,CA,MARIN COUNTY,NOVATO,94945,17218,ISO,Unknown,ATC,Light Fabrication and Assembly
-118.139465,33.953075,10504 WILEY BURKE AVE,US,CA,LOS ANGELES COUNTY,DOWNEY,90241,14848,ISO,Unknown,ATC,Light Fabrication and Assembly
-122.177956,37.732628,10538 ACALANES DR,US,CA,ALAMEDA COUNTY,OAKLAND,94603,14426,ISO,Unknown,ATC,Light Fabrication and Assembly
-118.876282,34.192608,1068 BART CIR,US,CA,VENTURA COUNTY,THOUSAND OAKS,91360,12747,ISO,Unknown,ATC,Light Fabrication and Assembly
-119.478508,35.137901,107 BRANDON AVE,US,CA,KERN COUNTY,TAFT,93268,20880,ISO,Unknown,ATC,Light Fabrication and Assembly
-118.955048,34.176525,107 FALLBROOK AVE,US,CA,VENTURA COUNTY,NEWBURY PARK,91320,13665,ISO,Unknown,ATC,Light Fabrication and Assembly
-118.862900,34.191380,1076 WHITECLIFF RD,US,CA,VENTURA COUNTY,THOUSAND OAKS,91360,22531,ISO,Unknown,ATC,Light Fabrication and Assembly
-119.406921,36.556175,1077 ASTER CT,US,CA,TULARE COUNTY,DINUBA,93618,23486,ISO,Unknown,ATC,Light Fabrication and Assembly
-118.862747,34.191620,1088 WHITECLIFF RD,US,CA,VENTURA COUNTY,THOUSAND OAKS,91360,10563,ISO,Unknown,ATC,Light Fabrication and Assembly
-119.478516,35.138062,109 BRANDON AVE,US,CA,KERN COUNTY,TAFT,93268,24867,ISO,Unknown,ATC,Light Fabrication and Assembly
-118.944626,34.176006,11 NADINE CT,US,CA,VENTURA COUNTY,NEWBURY PARK,91320,13538,ISO,Unknown,ATC,Light Fabrication and Assembly
-121.519112,39.511204,11 SERRA MONTE DR,US,CA,BUTTE COUNTY,OROVILLE,95966,17073,ISO,Unknown,ATC,Light Fabrication and Assembly
-118.945793,34.176701,110 WALTER AVE,US,CA,VENTURA COUNTY,NEWBURY PARK,91320,26548,ISO,Unknown,ATC,Light Fabrication and Assembly
-118.863213,34.192261,1107 WHITECLIFF RD,US,CA,VENTURA COUNTY,THOUSAND OAKS,91360,20813,ISO,Unknown,ATC,Light Fabrication and Assembly
-117.636765,34.113159,1115 DICKENSON CT,US,CA,SAN BERNARDINO COUNTY,UPLAND,91786,13387,ISO,Unknown,ATC,Light Fabrication and Assembly
-117.693260,35.634499,1117 W ROBERT AVE,US,CA,KERN COUNTY,RIDGECREST,93555,34775,ISO,Unknown,ATC,Light Fabrication and Assembly
-122.607048,38.237011,1119 SAINT VINCENT CT,US,CA,SONOMA COUNTY,PETALUMA,94954,7090,ISO,Unknown,ATC,Light Fabrication and Assembly
-118.151039,34.714943,1120 W AVENUE H4,US,CA,LOS ANGELES COUNTY,LANCASTER,93534,16169,ISO,Unknown,ATC,Light Fabrication and Assembly
-117.587006,33.862011,1125 ROSE CIR,US,CA,RIVERSIDE COUNTY,CORONA,92882,21669,ISO,Unknown,ATC,Light Fabrication and Assembly
-117.693135,35.603766,1125 S FARRAGUT ST,US,CA,KERN COUNTY,RIDGECREST,93555,12834,ISO,Unknown,ATC,Light Fabrication and Assembly
-122.690353,38.343575,1127 COPELAND CREEK DR,US,CA,SONOMA COUNTY,ROHNERT PARK,94928,12034,ISO,Unknown,ATC,Light Fabrication and Assembly
-122.690178,38.343575,1129 COPELAND CREEK DR,US,CA,SONOMA COUNTY,ROHNERT PARK,94928,17159,ISO,Unknown,ATC,Light Fabrication and Assembly
-119.711950,36.310839,11298 DAN DR,US,CA,KINGS COUNTY,ARMONA,93202,13491,ISO,Unknown,ATC,Light Fabrication and Assembly
-122.318229,37.571623,113 S HUMBOLDT ST,US,CA,SAN MATEO COUNTY,SAN MATEO,94401,20376,ISO,Unknown,ATC,Light Fabrication and Assembly
-122.690002,38.343575,1131 COPELAND CREEK DR,US,CA,SONOMA COUNTY,ROHNERT PARK,94928,22632,ISO,Unknown,ATC,Light Fabrication and Assembly
-117.530121,33.979523,11312 58TH ST,US,CA,RIVERSIDE COUNTY,MIRA LOMA,91752,21614,ISO,Unknown,ATC,Light Fabrication and Assembly
-122.689835,38.343578,1133 COPELAND CREEK DR,US,CA,SONOMA COUNTY,ROHNERT PARK,94928,15777,ISO,Unknown,ATC,Light Fabrication and Assembly
-117.693993,35.614105,1133 W IOWA AVE,US,CA,KERN COUNTY,RIDGECREST,93555,20161,ISO,Unknown,ATC,Light Fabrication and Assembly
-117.530510,33.978951,11343 BIG DIPPER DR,US,CA,RIVERSIDE COUNTY,MIRA LOMA,91752,11103,ISO,Unknown,ATC,Light Fabrication and Assembly
-117.636436,34.115536,1141 ARMANDO ST,US,CA,SAN BERNARDINO COUNTY,UPLAND,91786,25875,ISO,Unknown,ATC,Light Fabrication and Assembly
-119.303986,36.307907,1143 W ASHLAND AVE,US,CA,TULARE COUNTY,VISALIA,93277,26281,ISO,Unknown,ATC,Light Fabrication and Assembly
-117.533234,33.990513,11456 GEYSER DR,US,CA,RIVERSIDE COUNTY,MIRA LOMA,91752,24309,ISO,Unknown,ATC,Light Fabrication and Assembly
-117.533318,33.988762,11463 MOJAVE DR,US,CA,RIVERSIDE COUNTY,MIRA LOMA,91752,28030,ISO,Unknown,ATC,Light Fabrication and Assembly
-122.129349,37.667446,1148 VIA ESPERANZA,US,CA,ALAMEDA COUNTY,SAN LORENZO,94580,15331,ISO,Unknown,ATC,Light Fabrication and Assembly
-118.087364,33.876877,11548 169TH ST,US,CA,LOS ANGELES COUNTY,ARTESIA,90701,16898,ISO,Unknown,ATC,Light Fabrication and Assembly
-118.022949,33.794811,11569 MALDEN ST,US,CA,ORANGE COUNTY,CYPRESS,90630,15660,ISO,Unknown,ATC,Light Fabrication and Assembly
-122.622108,38.255890,116 RENE DR,US,CA,SONOMA COUNTY,PETALUMA,94954,13350,ISO,Unknown,ATC,Light Fabrication and Assembly
-118.022308,33.793606,11669 MALDEN ST,US,CA,ORANGE COUNTY,CYPRESS,90630,13711,ISO,Unknown,ATC,Light Fabrication and Assembly
-122.818924,38.404011,117 MORRIS ST,US,CA,SONOMA COUNTY,SEBASTOPOL,95472,900000,ISO,Steel Frame - Sup. EQ Resistive (3A),ATC,Wholesale Trade
-122.818924,38.404011,117 MORRIS ST,US,CA,SONOMA COUNTY,SEBASTOPOL,95472,900000,ISO,Steel Frame - Sup. EQ Resistive (3A),ATC,Wholesale Trade
-118.881287,34.194973,1174 GREENFIELD ST,US,CA,VENTURA COUNTY,THOUSAND OAKS,91360,20162,ISO,Unknown,ATC,Light Fabrication and Assembly
-117.539284,33.985065,11740 PARK CENTER DR,US,CA,RIVERSIDE COUNTY,MIRA LOMA,91752,12119,ISO,Unknown,ATC,Light Fabrication and Assembly
-118.956459,34.159756,1179 LA GRANGE AVE,US,CA,VENTURA COUNTY,NEWBURY PARK,91320,17914,ISO,Unknown,ATC,Light Fabrication and Assembly
-117.546364,34.111401,11862 CEDARBROOK PL,US,CA,SAN BERNARDINO COUNTY,RCH CUCAMONGA,91730,12077,ISO,Unknown,ATC,Light Fabrication and Assembly
-119.450188,35.143501,119 E WOODROW ST,US,CA,KERN COUNTY,TAFT,93268,11200,ISO,Unknown,ATC,Light Fabrication and Assembly
-117.654160,34.109371,1193 N PALM AVE,US,CA,SAN BERNARDINO COUNTY,UPLAND,91786,27238,ISO,Unknown,ATC,Light Fabrication and Assembly
-117.543037,34.110809,12011 NORWICK ST,US,CA,SAN BERNARDINO COUNTY,RCH CUCAMONGA,91739,13399,ISO,Unknown,ATC,Light Fabrication and Assembly
-118.151154,33.935043,12055 HORLEY AVE,US,CA,LOS ANGELES COUNTY,DOWNEY,90242,14700,ISO,Unknown,ATC,Light Fabrication and Assembly
-122.642586,38.259949,121 MARVIN CT,US,CA,SONOMA COUNTY,PETALUMA,94954,10466,ISO,Unknown,ATC,Light Fabrication and Assembly
-116.584183,33.084690,1212 SUNRISE DR,US,CA,SAN DIEGO COUNTY,JULIAN,92036,19414,ISO,Unknown,ATC,Light Fabrication and Assembly
-117.654160,34.109577,1213 N PALM AVE,US,CA,SAN BERNARDINO COUNTY,UPLAND,91786,24147,ISO,Unknown,ATC,Light Fabrication and Assembly
-122.690170,38.363098,1214 HERMITAGE WAY,US,CA,SONOMA COUNTY,ROHNERT PARK,94928,11834,ISO,Unknown,ATC,Light Fabrication and Assembly
-117.695702,35.642731,1229 JOSHUA CT,US,CA,KERN COUNTY,RIDGECREST,93555,16143,ISO,Unknown,ATC,Light Fabrication and Assembly
-118.912262,34.195690,1232 DEL VERDE CT,US,CA,VENTURA COUNTY,NEWBURY PARK,91320,10482,ISO,Unknown,ATC,Light Fabrication and Assembly
-117.692210,35.601866,1237 S MCCALL ST,US,CA,KERN COUNTY,RIDGECREST,93555,22444,ISO,Unknown,ATC,Light Fabrication and Assembly
-118.952782,34.155655,1239 ROTELLA ST,US,CA,VENTURA COUNTY,NEWBURY PARK,91320,22289,ISO,Unknown,ATC,Light Fabrication and Assembly
-118.176262,33.858212,1246 E PHILLIPS ST,US,CA,LOS ANGELES COUNTY,LONG BEACH,90805,20878,ISO,Unknown,ATC,Light Fabrication and Assembly
-118.152939,34.704746,1252 W AVENUE H15,US,CA,LOS ANGELES COUNTY,LANCASTER,93534,18692,ISO,Unknown,ATC,Light Fabrication and Assembly
-118.923462,34.180088,126 N MADRID AVE,US,CA,VENTURA COUNTY,NEWBURY PARK,91320,13640,ISO,Unknown,ATC,Light Fabrication and Assembly
-122.620110,38.241474,1262 LINDBERG LN,US,CA,SONOMA COUNTY,PETALUMA,94954,13654,ISO,Unknown,ATC,Light Fabrication and Assembly
-122.687622,38.330109,1264 MAIDEN WAY,US,CA,SONOMA COUNTY,ROHNERT PARK,94928,6267,ISO,Unknown,ATC,Light Fabrication and Assembly
-117.672134,34.111774,1264 NANCY CT,US,CA,SAN BERNARDINO COUNTY,UPLAND,91786,19753,ISO,Unknown,ATC,Light Fabrication and Assembly
-117.048843,32.944023,12650 BROOKPRINTER PL,US,CA,SAN DIEGO COUNTY,POWAY,92064,2075000,ISO,Steel Frame - Sup. EQ Resistive (3A),ATC,Wholesale Trade
-117.048843,32.944023,12650 BROOKPRINTER PL,US,CA,SAN DIEGO COUNTY,POWAY,92064,2075000,ISO,Steel Frame - Sup. EQ Resistive (3A),ATC,Wholesale Trade
-118.923988,34.180122,127 N MADRID AVE,US,CA,VENTURA COUNTY,NEWBURY PARK,91320,11268,ISO,Unknown,ATC,Light Fabrication and Assembly
-117.645950,34.110306,1276 N 3RD AVE,US,CA,SAN BERNARDINO COUNTY,UPLAND,91786,13304,ISO,Unknown,ATC,Light Fabrication and Assembly
-117.634201,34.113129,1279 DORIAN CT,US,CA,SAN BERNARDINO COUNTY,UPLAND,91786,12781,ISO,Unknown,ATC,Light Fabrication and Assembly
-122.615204,38.239662,1280 GLENWOOD DR,US,CA,SONOMA COUNTY,PETALUMA,94954,15734,ISO,Unknown,ATC,Light Fabrication and Assembly
-122.686119,38.370880,1280 HOLLY AVE,US,CA,SONOMA COUNTY,ROHNERT PARK,94928,16128,ISO,Unknown,ATC,Light Fabrication and Assembly
-118.276726,33.915821,12821 S SPRING ST,US,CA,LOS ANGELES COUNTY,LOS ANGELES,90061,2075000,ISO,Steel Frame - Sup. EQ Resistive (3A),ATC,Wholesale Trade
-118.276726,33.915821,12821 S SPRING ST,US,CA,LOS ANGELES COUNTY,LOS ANGELES,90061,2075000,ISO,Steel Frame - Sup. EQ Resistive (3A),ATC,Wholesale Trade
-122.611267,38.238689,1292 BAYWOOD DR,US,CA,SONOMA COUNTY,PETALUMA,94954,12013,ISO,Unknown,ATC,Light Fabrication and Assembly
-122.605446,38.235352,1297 SAINT FRANCIS DR,US,CA,SONOMA COUNTY,PETALUMA,94954,13218,ISO,Unknown,ATC,Light Fabrication and Assembly
-122.660751,38.224434,13 BIXBY CT,US,CA,SONOMA COUNTY,PETALUMA,94952,26861,ISO,Unknown,ATC,Light Fabrication and Assembly
-117.631691,34.110794,1303 MONTE VERDE AVE,US,CA,SAN BERNARDINO COUNTY,UPLAND,91786,22490,ISO,Unknown,ATC,Light Fabrication and Assembly
-118.871681,34.194878,1305 SHEFFIELD PL,US,CA,VENTURA COUNTY,THOUSAND OAKS,91360,18063,ISO,Unknown,ATC,Light Fabrication and Assembly
-122.037971,37.278564,13050 PIERCE RD,US,CA,SANTA CLARA COUNTY,SARATOGA,95070,28795,ISO,Unknown,ATC,Light Fabrication and Assembly
-117.625725,34.023220,1308 E SAINT ANDREWS ST,US,CA,SAN BERNARDINO COUNTY,ONTARIO,91761,18091,ISO,Unknown,ATC,Light Fabrication and Assembly
-117.690309,35.600287,1309 S RANGER ST,US,CA,KERN COUNTY,RIDGECREST,93555,17989,ISO,Unknown,ATC,Light Fabrication and Assembly
-122.710243,38.336948,131 ALDEN AVE,US,CA,SONOMA COUNTY,ROHNERT PARK,94928,11173,ISO,Unknown,ATC,Light Fabrication and Assembly
-117.634735,34.111080,1312 CRAWFORD AVE,US,CA,SAN BERNARDINO COUNTY,UPLAND,91786,24251,ISO,Unknown,ATC,Light Fabrication and Assembly
-117.690311,35.600178,1313 S RANGER ST,US,CA,KERN COUNTY,RIDGECREST,93555,21252,ISO,Unknown,ATC,Light Fabrication and Assembly
-118.855988,34.216434,1314 CALLE AVELLANO,US,CA,VENTURA COUNTY,THOUSAND OAKS,91360,13659,ISO,Unknown,ATC,Light Fabrication and Assembly
-117.628365,34.111343,1321 LOMA SOLA AVE,US,CA,SAN BERNARDINO COUNTY,UPLAND,91786,20216,ISO,Unknown,ATC,Light Fabrication and Assembly
-117.695156,35.600186,1321 MAYO ST,US,CA,KERN COUNTY,RIDGECREST,93555,24828,ISO,Unknown,ATC,Light Fabrication and Assembly
-117.673515,34.104519,1328 WAVERLY CT,US,CA,SAN BERNARDINO COUNTY,UPLAND,91786,13469,ISO,Unknown,ATC,Light Fabrication and Assembly
-121.562782,39.162968,1331 JOHNSON AVE,US,CA,YUBA COUNTY,MARYSVILLE,95901,23755,ISO,Unknown,ATC,Light Fabrication and Assembly
-118.855507,34.218826,1342 CALLE ALMENDRO,US,CA,VENTURA COUNTY,THOUSAND OAKS,91360,31152,ISO,Unknown,ATC,Light Fabrication and Assembly
-117.633156,34.112061,1342 N 13TH AVE,US,CA,SAN BERNARDINO COUNTY,UPLAND,91786,25672,ISO,Unknown,ATC,Light Fabrication and Assembly
-117.609459,34.082401,1344 N BALBOA AVE,US,CA,SAN BERNARDINO COUNTY,ONTARIO,91764,18227,ISO,Unknown,ATC,Light Fabrication and Assembly
-117.644806,34.112385,1348 WINSTON CT,US,CA,SAN BERNARDINO COUNTY,UPLAND,91786,8653,ISO,Unknown,ATC,Light Fabrication and Assembly
-122.909851,38.708805,135 RENZ LN,US,CA,SONOMA COUNTY,GEYSERVILLE,95441,12133,ISO,Unknown,ATC,Light Fabrication and Assembly
-117.633156,34.112419,1354 N 13TH AVE,US,CA,SAN BERNARDINO COUNTY,UPLAND,91786,21707,ISO,Unknown,ATC,Light Fabrication and Assembly
-117.632721,34.112572,1355 ALTA AVE,US,CA,SAN BERNARDINO COUNTY,UPLAND,91786,27224,ISO,Unknown,ATC,Light Fabrication and Assembly
-117.609451,34.082729,1356 N BALBOA AVE,US,CA,SAN BERNARDINO COUNTY,ONTARIO,91764,13566,ISO,Unknown,ATC,Light Fabrication and Assembly
-117.637047,34.112999,1362 DARLINGTON AVE,US,CA,SAN BERNARDINO COUNTY,UPLAND,91786,13293,ISO,Unknown,ATC,Light Fabrication and Assembly
-118.323387,33.906479,13721 S WILKIE AVE,US,CA,LOS ANGELES COUNTY,GARDENA,90249,17608,ISO,Unknown,ATC,Light Fabrication and Assembly
-117.249344,33.921516,13722 RUNDELL DR,US,CA,RIVERSIDE COUNTY,MORENO VALLEY,92553,24961,ISO,Unknown,ATC,Light Fabrication and Assembly
-118.853989,34.214855,1373 CALLE PIMIENTO,US,CA,VENTURA COUNTY,THOUSAND OAKS,91360,13627,ISO,Unknown,ATC,Light Fabrication and Assembly
-117.502640,34.147831,13746 SAN LUIS REY CT,US,CA,SAN BERNARDINO COUNTY,RANCHO CUCAMONGA,91739,7989,ISO,Unknown,ATC,Light Fabrication and Assembly
-118.853783,34.214687,1379 CALLE PIMIENTO,US,CA,VENTURA COUNTY,THOUSAND OAKS,91360,13695,ISO,Unknown,ATC,Light Fabrication and Assembly
-118.853737,34.215122,1380 CALLE AVELLANO,US,CA,VENTURA COUNTY,THOUSAND OAKS,91360,13744,ISO,Unknown,ATC,Light Fabrication and Assembly
-118.323395,33.906033,13809 S WILKIE AVE,US,CA,LOS ANGELES COUNTY,GARDENA,90249,8025,ISO,Unknown,ATC,Light Fabrication and Assembly
-118.853973,34.206470,1389 CALLE DURAZNO,US,CA,VENTURA COUNTY,THOUSAND OAKS,91360,24078,ISO,Unknown,ATC,Light Fabrication and Assembly
-118.323723,33.904644,13920 ARDATH AVE,US,CA,LOS ANGELES COUNTY,GARDENA,90249,20027,ISO,Unknown,ATC,Light Fabrication and Assembly
-118.323395,33.904644,13921 S WILKIE AVE,US,CA,LOS ANGELES COUNTY,GARDENA,90249,13668,ISO,Unknown,ATC,Light Fabrication and Assembly
-118.925056,34.177830,14 NORTHAM AVE,US,CA,VENTURA COUNTY,NEWBURY PARK,91320,24654,ISO,Unknown,ATC,Light Fabrication and Assembly
-117.658951,34.095295,140 N UKIAH WAY,US,CA,SAN BERNARDINO COUNTY,UPLAND,91786,20048,ISO,Unknown,ATC,Light Fabrication and Assembly
-118.924324,34.180351,140 NORTHAM AVE,US,CA,VENTURA COUNTY,NEWBURY PARK,91320,13585,ISO,Unknown,ATC,Light Fabrication and Assembly
-122.683601,38.366100,1402 GREGORY CT,US,CA,SONOMA COUNTY,ROHNERT PARK,94928,16873,ISO,Unknown,ATC,Light Fabrication and Assembly
-117.636665,34.114517,1405 FERNANDO AVE,US,CA,SAN BERNARDINO COUNTY,UPLAND,91786,18630,ISO,Unknown,ATC,Light Fabrication and Assembly
-117.630898,34.110840,1407 E 13TH ST,US,CA,SAN BERNARDINO COUNTY,UPLAND,91786,29937,ISO,Unknown,ATC,Light Fabrication and Assembly
-119.238174,35.765717,1412 7TH AVE,US,CA,KERN COUNTY,DELANO,93215,13643,ISO,Unknown,ATC,Light Fabrication and Assembly
-118.853806,34.237068,1412 CALLE FIDELIDAD,US,CA,VENTURA COUNTY,THOUSAND OAKS,91360,13452,ISO,Unknown,ATC,Light Fabrication and Assembly
-118.956749,34.175678,142 KNOLLWOOD DR,US,CA,VENTURA COUNTY,NEWBURY PARK,91320,12876,ISO,Unknown,ATC,Light Fabrication and Assembly
-118.879166,34.213257,142 SANDBERG ST,US,CA,VENTURA COUNTY,THOUSAND OAKS,91360,13736,ISO,Unknown,ATC,Light Fabrication and Assembly
-118.873962,34.196865,1420 NORWICH AVE,US,CA,VENTURA COUNTY,THOUSAND OAKS,91360,23580,ISO,Unknown,ATC,Light Fabrication and Assembly
-122.615395,38.244694,1420 SARKESIAN DR,US,CA,SONOMA COUNTY,PETALUMA,94954,9358,ISO,Unknown,ATC,Light Fabrication and Assembly
-117.607925,34.084106,1444 N SOLANO PL,US,CA,SAN BERNARDINO COUNTY,ONTARIO,91764,16477,ISO,Unknown,ATC,Light Fabrication and Assembly
-117.644241,34.116032,1446 WINSTON CT,US,CA,SAN BERNARDINO COUNTY,UPLAND,91786,13450,ISO,Unknown,ATC,Light Fabrication and Assembly
-118.852470,34.196083,1447 EL VERANO DR,US,CA,VENTURA COUNTY,THOUSAND OAKS,91362,27130,ISO,Unknown,ATC,Light Fabrication and Assembly
-118.873711,34.197334,1448 NORWICH AVE,US,CA,VENTURA COUNTY,THOUSAND OAKS,91360,13582,ISO,Unknown,ATC,Light Fabrication and Assembly
-117.622124,34.020901,1450 E MERION CT,US,CA,SAN BERNARDINO COUNTY,ONTARIO,91761,16652,ISO,Unknown,ATC,Light Fabrication and Assembly
-118.840248,34.196865,1457 WILDER ST,US,CA,VENTURA COUNTY,THOUSAND OAKS,91362,27396,ISO,Unknown,ATC,Light Fabrication and Assembly
-122.710014,38.337368,146 ALDEN AVE,US,CA,SONOMA COUNTY,ROHNERT PARK,94928,20770,ISO,Unknown,ATC,Light Fabrication and Assembly
-117.629990,34.113026,1463 ESTRELLITA CT,US,CA,SAN BERNARDINO COUNTY,UPLAND,91786,20958,ISO,Unknown,ATC,Light Fabrication and Assembly
-117.644203,34.116520,1464 WINSTON CT,US,CA,SAN BERNARDINO COUNTY,UPLAND,91786,13385,ISO,Unknown,ATC,Light Fabrication and Assembly
-117.633110,34.116753,1468 N 13TH AVE,US,CA,SAN BERNARDINO COUNTY,UPLAND,91786,30694,ISO,Unknown,ATC,Light Fabrication and Assembly
-117.723625,33.986938,14681 LOBELIA DR,US,CA,SAN BERNARDINO COUNTY,CHINO HILLS,91709,13663,ISO,Unknown,ATC,Light Fabrication and Assembly
-118.872154,34.197479,1469 KIRK AVE,US,CA,VENTURA COUNTY,THOUSAND OAKS,91360,13417,ISO,Unknown,ATC,Light Fabrication and Assembly
-120.744080,37.074558,14796 MIDWAY RD,US,CA,MERCED COUNTY,LOS BANOS,93635,45761,ISO,Unknown,ATC,Light Fabrication and Assembly
-117.633682,34.117508,1487 N 13TH AVE,US,CA,SAN BERNARDINO COUNTY,UPLAND,91786,35341,ISO,Unknown,ATC,Light Fabrication and Assembly
-117.649330,34.132160,150 E 19TH ST,US,CA,SAN BERNARDINO COUNTY,UPLAND,91784,13499,ISO,Unknown,ATC,Light Fabrication and Assembly
-122.148643,37.690357,15044 CHURCHILL ST,US,CA,ALAMEDA COUNTY,SAN LEANDRO,94579,16037,ISO,Unknown,ATC,Light Fabrication and Assembly
-118.819000,34.190773,1515 LARKFIELD AVE,US,CA,VENTURA COUNTY,WESTLAKE VILLAGE,91362,30536,ISO,Unknown,ATC,Light Fabrication and Assembly
-117.608910,34.085464,1518 N BARRANCA AVE,US,CA,SAN BERNARDINO COUNTY,ONTARIO,91764,12036,ISO,Unknown,ATC,Light Fabrication and Assembly
-118.880043,34.216141,152 LONGFELLOW ST,US,CA,VENTURA COUNTY,THOUSAND OAKS,91360,24562,ISO,Unknown,ATC,Light Fabrication and Assembly
-118.320290,33.892971,15228 PURCHE AVE,US,CA,LOS ANGELES COUNTY,GARDENA,90249,13656,ISO,Unknown,ATC,Light Fabrication and Assembly
-118.875931,34.199310,1527 WAKEFIELD AVE,US,CA,VENTURA COUNTY,THOUSAND OAKS,91360,18424,ISO,Unknown,ATC,Light Fabrication and Assembly
-117.846897,33.733849,1529 E MCFADDEN AVE,US,CA,ORANGE COUNTY,SANTA ANA,92705,2075000,ISO,Steel Frame - Sup. EQ Resistive (3A),ATC,Wholesale Trade
-117.846897,33.733849,1529 E MCFADDEN AVE,US,CA,ORANGE COUNTY,SANTA ANA,92705,2075000,ISO,Steel Frame - Sup. EQ Resistive (3A),ATC,Wholesale Trade
-122.613388,38.246906,1532 SARKESIAN DR,US,CA,SONOMA COUNTY,PETALUMA,94954,13364,ISO,Unknown,ATC,Light Fabrication and Assembly
-118.850304,34.241695,1535 CALLE ZOCALO,US,CA,VENTURA COUNTY,THOUSAND OAKS,91360,13639,ISO,Unknown,ATC,Light Fabrication and Assembly
-118.318550,33.890636,15412 SPINNING AVE,US,CA,LOS ANGELES COUNTY,GARDENA,90249,20030,ISO,Unknown,ATC,Light Fabrication and Assembly
-122.677490,38.369446,1542 GENESIS CT,US,CA,SONOMA COUNTY,ROHNERT PARK,94928,23886,ISO,Unknown,ATC,Light Fabrication and Assembly
-122.595551,38.237453,1544 CERRO SONOMA CIR,US,CA,SONOMA COUNTY,PETALUMA,94954,26912,ISO,Unknown,ATC,Light Fabrication and Assembly
-119.527824,36.975718,15478 MORGAN CANYON RD,US,CA,FRESNO COUNTY,PRATHER,93651,18491,ISO,Unknown,ATC,Light Fabrication and Assembly
-118.093620,33.778351,155 YALE LN,US,CA,ORANGE COUNTY,SEAL BEACH,90740,35973,ISO,Unknown,ATC,Light Fabrication and Assembly
-117.615700,34.086376,1552 N CORONA AVE,US,CA,SAN BERNARDINO COUNTY,ONTARIO,91764,21929,ISO,Unknown,ATC,Light Fabrication and Assembly
-122.593781,38.236217,1554 RIO NIDO CT,US,CA,SONOMA COUNTY,PETALUMA,94954,7906,ISO,Unknown,ATC,Light Fabrication and Assembly
-122.603973,38.240597,1568 TRELLIS LN,US,CA,SONOMA COUNTY,PETALUMA,94954,6968,ISO,Unknown,ATC,Light Fabrication and Assembly
-122.603600,38.241016,1580 TRELLIS LN,US,CA,SONOMA COUNTY,PETALUMA,94954,11572,ISO,Unknown,ATC,Light Fabrication and Assembly
-117.655273,34.120811,1581 COLUMBINE WAY,US,CA,SAN BERNARDINO COUNTY,UPLAND,91786,23604,ISO,Unknown,ATC,Light Fabrication and Assembly
-122.181145,37.760246,1589 77TH AVE,US,CA,ALAMEDA COUNTY,OAKLAND,94621,4813,ISO,Unknown,ATC,Light Fabrication and Assembly
-117.252002,34.079815,1615 RIVERVIEW DR,US,CA,SAN BERNARDINO COUNTY,SAN BERNARDINO,92408,2075000,ISO,Steel Frame - Sup. EQ Resistive (3A),ATC,Wholesale Trade
-117.252002,34.079815,1615 RIVERVIEW DR,US,CA,SAN BERNARDINO COUNTY,SAN BERNARDINO,92408,2075000,ISO,Steel Frame - Sup. EQ Resistive (3A),ATC,Wholesale Trade
-118.172859,33.855782,1624 E 55TH ST,US,CA,LOS ANGELES COUNTY,LONG BEACH,90805,13995,ISO,Unknown,ATC,Light Fabrication and Assembly
-118.172859,33.856686,1624 E ROGERS ST,US,CA,LOS ANGELES COUNTY,LONG BEACH,90805,15534,ISO,Unknown,ATC,Light Fabrication and Assembly
-118.847816,34.241741,1639 CALLE ZOCALO,US,CA,VENTURA COUNTY,THOUSAND OAKS,91360,13350,ISO,Unknown,ATC,Light Fabrication and Assembly
-122.217255,38.049850,165 DUPERU DR,US,CA,CONTRA COSTA COUNTY,CROCKETT,94525,23272,ISO,Unknown,ATC,Light Fabrication and Assembly
-122.597984,38.240486,1653 DEL ORO CIR,US,CA,SONOMA COUNTY,PETALUMA,94954,13350,ISO,Unknown,ATC,Light Fabrication and Assembly
-118.915779,34.188763,1666 AMADOR LN,US,CA,VENTURA COUNTY,NEWBURY PARK,91320,24125,ISO,Unknown,ATC,Light Fabrication and Assembly
-118.880295,34.206764,168 TARKIO ST,US,CA,VENTURA COUNTY,THOUSAND OAKS,91360,13377,ISO,Unknown,ATC,Light Fabrication and Assembly
-122.596947,38.238914,1688 DEL ORO CIR,US,CA,SONOMA COUNTY,PETALUMA,94954,20443,ISO,Unknown,ATC,Light Fabrication and Assembly
-118.872505,34.190792,169 DRYDEN ST,US,CA,VENTURA COUNTY,THOUSAND OAKS,91360,11225,ISO,Unknown,ATC,Light Fabrication and Assembly
-118.911942,34.175388,169 NEWBURY LN,US,CA,VENTURA COUNTY,NEWBURY PARK,91320,15179,ISO,Unknown,ATC,Light Fabrication and Assembly
-122.023590,38.695328,16911 MICHAEL CT,US,CA,YOLO COUNTY,ESPARTO,95627,13587,ISO,Unknown,ATC,Light Fabrication and Assembly
-118.872185,34.218201,170 SUMMERFIELD ST,US,CA,VENTURA COUNTY,THOUSAND OAKS,91360,14531,ISO,Unknown,ATC,Light Fabrication and Assembly
-117.616364,34.089069,1704 E HIGHLAND ST,US,CA,SAN BERNARDINO COUNTY,ONTARIO,91764,26002,ISO,Unknown,ATC,Light Fabrication and Assembly
-122.295097,37.559814,1705 BROOKS ST,US,CA,SAN MATEO COUNTY,SAN MATEO,94403,12619,ISO,Unknown,ATC,Light Fabrication and Assembly
-122.613686,38.250927,1705 SAINT ANNE WAY,US,CA,SONOMA COUNTY,PETALUMA,94954,12539,ISO,Unknown,ATC,Light Fabrication and Assembly
-118.090698,33.875523,17110 BABER AVE,US,CA,LOS ANGELES COUNTY,ARTESIA,90701,22372,ISO,Unknown,ATC,Light Fabrication and Assembly
-118.171143,33.856316,1715 E 55TH ST,US,CA,LOS ANGELES COUNTY,LONG BEACH,90805,17986,ISO,Unknown,ATC,Light Fabrication and Assembly
-122.037418,39.513763,1720 COUNTY ROAD WW,US,CA,GLENN COUNTY,GLENN,95943,42355,ISO,Unknown,ATC,Light Fabrication and Assembly
-122.676591,38.335950,1732 E COTATI AVE,US,CA,SONOMA COUNTY,PENNGROVE,94951,10258,ISO,Unknown,ATC,Light Fabrication and Assembly
-121.285338,38.548263,1738 Amhuerst Way,US,CA,SACRAMENTO COUNTY,Mather,95655,16438,ISO,Unknown,ATC,Light Fabrication and Assembly
-118.162926,34.700882,1740 W JACKMAN ST,US,CA,LOS ANGELES COUNTY,LANCASTER,93534,15491,ISO,Unknown,ATC,Light Fabrication and Assembly
-118.935498,34.175865,175 W KELLY RD,US,CA,VENTURA COUNTY,NEWBURY PARK,91320,27218,ISO,Unknown,ATC,Light Fabrication and Assembly
-122.674355,38.325455,1760 ALAN DR,US,CA,SONOMA COUNTY,PENNGROVE,94951,18687,ISO,Unknown,ATC,Light Fabrication and Assembly
-122.673943,38.332661,1771 WEISS LN,US,CA,SONOMA COUNTY,PENNGROVE,94951,21092,ISO,Unknown,ATC,Light Fabrication and Assembly
-122.673401,38.329929,1792 WILLIAM DR,US,CA,SONOMA COUNTY,PENNGROVE,94951,18742,ISO,Unknown,ATC,Light Fabrication and Assembly
-122.672548,38.332306,1795 WEISS LN,US,CA,SONOMA COUNTY,PENNGROVE,94951,11840,ISO,Unknown,ATC,Light Fabrication and Assembly
-118.923462,34.178303,18 N MADRID AVE,US,CA,VENTURA COUNTY,NEWBURY PARK,91320,21605,ISO,Unknown,ATC,Light Fabrication and Assembly
-118.170479,33.859341,1800 E 57TH ST,US,CA,LOS ANGELES COUNTY,LONG BEACH,90805,17160,ISO,Unknown,ATC,Light Fabrication and Assembly
-118.170555,33.867661,1805 E HARDING ST,US,CA,LOS ANGELES COUNTY,LONG BEACH,90805,12046,ISO,Unknown,ATC,Light Fabrication and Assembly
-121.887329,37.326534,181 PIERCE AVE,US,CA,SANTA CLARA COUNTY,SAN JOSE,95110,12009,ISO,Unknown,ATC,Light Fabrication and Assembly
-117.613853,34.079617,1810 E PRINCETON ST,US,CA,SAN BERNARDINO COUNTY,ONTARIO,91764,13372,ISO,Unknown,ATC,Light Fabrication and Assembly
-118.865944,34.202358,1810 RUTGERS DR,US,CA,VENTURA COUNTY,THOUSAND OAKS,91360,27266,ISO,Unknown,ATC,Light Fabrication and Assembly
-118.169930,33.856316,1825 E 55TH ST,US,CA,LOS ANGELES COUNTY,LONG BEACH,90805,21285,ISO,Unknown,ATC,Light Fabrication and Assembly
-118.844879,34.204910,1830 BERKSHIRE DR,US,CA,VENTURA COUNTY,THOUSAND OAKS,91362,13648,ISO,Unknown,ATC,Light Fabrication and Assembly
-118.169861,33.857605,1830 E 56TH ST,US,CA,LOS ANGELES COUNTY,LONG BEACH,90805,13107,ISO,Unknown,ATC,Light Fabrication and Assembly
-122.622551,38.260323,1830 INGRAM WAY,US,CA,SONOMA COUNTY,PETALUMA,94954,12070,ISO,Unknown,ATC,Light Fabrication and Assembly
-118.169662,33.855793,1836 E 55TH ST,US,CA,LOS ANGELES COUNTY,LONG BEACH,90805,12291,ISO,Unknown,ATC,Light Fabrication and Assembly
-118.111450,33.789715,1840 SNOWDEN AVE,US,CA,LOS ANGELES COUNTY,LONG BEACH,90815,20457,ISO,Unknown,ATC,Light Fabrication and Assembly
-118.844604,34.205490,1843 BERKSHIRE DR,US,CA,VENTURA COUNTY,THOUSAND OAKS,91362,29676,ISO,Unknown,ATC,Light Fabrication and Assembly
-118.102570,33.790146,1846 VUELTA GRANDE AVE,US,CA,LOS ANGELES COUNTY,LONG BEACH,90815,7354,ISO,Unknown,ATC,Light Fabrication and Assembly
-118.919052,34.178959,1849 ADRIAN ST,US,CA,VENTURA COUNTY,NEWBURY PARK,91320,9722,ISO,Unknown,ATC,Light Fabrication and Assembly
-117.374404,34.586125,18499 PHANTOM ST,US,CA,SAN BERNARDINO COUNTY,VICTORVILLE,92394,2075000,ISO,Steel Frame - Sup. EQ Resistive (3A),ATC,Wholesale Trade
-117.374404,34.586125,18499 PHANTOM ST,US,CA,SAN BERNARDINO COUNTY,VICTORVILLE,92394,2075000,ISO,Steel Frame - Sup. EQ Resistive (3A),ATC,Wholesale Trade
-118.862434,34.202545,1853 MONTGOMERY RD,US,CA,VENTURA COUNTY,THOUSAND OAKS,91360,22438,ISO,Unknown,ATC,Light Fabrication and Assembly
-118.881134,34.212391,186 W AVENIDA DE LAS FLORES,US,CA,VENTURA COUNTY,THOUSAND OAKS,91360,13469,ISO,Unknown,ATC,Light Fabrication and Assembly
-117.647888,34.131008,1861 N 3RD AVE,US,CA,SAN BERNARDINO COUNTY,UPLAND,91784,13253,ISO,Unknown,ATC,Light Fabrication and Assembly
-118.847473,34.202759,1876 EL MONTE DR,US,CA,VENTURA COUNTY,THOUSAND OAKS,91362,26100,ISO,Unknown,ATC,Light Fabrication and Assembly
-119.342018,35.581577,1890 SHAMROCK CT,US,CA,KERN COUNTY,WASCO,93280,16598,ISO,Unknown,ATC,Light Fabrication and Assembly
-118.120232,33.790829,1900 LAVE AVE,US,CA,LOS ANGELES COUNTY,LONG BEACH,90815,27918,ISO,Unknown,ATC,Light Fabrication and Assembly
-118.868607,34.204105,1908 BURLESON AVE,US,CA,VENTURA COUNTY,THOUSAND OAKS,91360,16097,ISO,Unknown,ATC,Light Fabrication and Assembly
-117.610413,34.081783,1914 E BONNIE BRAE CT,US,CA,SAN BERNARDINO COUNTY,ONTARIO,91764,13484,ISO,Unknown,ATC,Light Fabrication and Assembly
-118.866623,34.204449,1921 RUTGERS DR,US,CA,VENTURA COUNTY,THOUSAND OAKS,91360,13427,ISO,Unknown,ATC,Light Fabrication and Assembly
-121.909458,37.383056,1939 HARTOG DR,US,CA,SANTA CLARA COUNTY,SAN JOSE,95131,2075000,ISO,Steel Frame - Sup. EQ Resistive (3A),ATC,Wholesale Trade
-121.909458,37.383056,1939 HARTOG DR,US,CA,SANTA CLARA COUNTY,SAN JOSE,95131,2075000,ISO,Steel Frame - Sup. EQ Resistive (3A),ATC,Wholesale Trade
-118.844437,34.204205,1947 HAVENWOOD DR,US,CA,VENTURA COUNTY,THOUSAND OAKS,91362,27327,ISO,Unknown,ATC,Light Fabrication and Assembly
-118.839401,34.204334,1955 ERBES RD,US,CA,VENTURA COUNTY,THOUSAND OAKS,91362,14437,ISO,Unknown,ATC,Light Fabrication and Assembly
-122.546478,38.787956,19786 MOUNTAIN MDW S,US,CA,LAKE COUNTY,HIDDEN VALLEY LAKE,95467,19934,ISO,Unknown,ATC,Light Fabrication and Assembly
-118.483391,35.139706,19809 LUANA DR,US,CA,KERN COUNTY,TEHACHAPI,93561,10609,ISO,Unknown,ATC,Light Fabrication and Assembly
-118.844078,34.203060,1990 EL MONTE DR,US,CA,VENTURA COUNTY,THOUSAND OAKS,91362,24728,ISO,Unknown,ATC,Light Fabrication and Assembly
-122.657669,38.225967,2 BENTLEY CT,US,CA,SONOMA COUNTY,PETALUMA,94952,19989,ISO,Unknown,ATC,Light Fabrication and Assembly
-122.709290,38.337372,200 ALDEN AVE,US,CA,SONOMA COUNTY,ROHNERT PARK,94928,14446,ISO,Unknown,ATC,Light Fabrication and Assembly
-118.240646,33.850002,20021 BROADACRES AVE,US,CA,LOS ANGELES COUNTY,CARSON,90746,24890,ISO,Unknown,ATC,Light Fabrication and Assembly
-118.486160,35.610264,2004 PECOS AVE,US,CA,KERN COUNTY,LAKE ISABELLA,93240,18545,ISO,Unknown,ATC,Light Fabrication and Assembly
-118.485756,35.611374,2012 KEM AVE,US,CA,KERN COUNTY,LAKE ISABELLA,93240,26406,ISO,Unknown,ATC,Light Fabrication and Assembly
-118.485435,35.612614,2019 CRESTVIEW AVE,US,CA,KERN COUNTY,LAKE ISABELLA,93240,26193,ISO,Unknown,ATC,Light Fabrication and Assembly
-118.871887,34.224419,202 IRONWOOD CT,US,CA,VENTURA COUNTY,THOUSAND OAKS,91360,22540,ISO,Unknown,ATC,Light Fabrication and Assembly
-117.068642,32.623344,202 SAN MIGUEL DR,US,CA,SAN DIEGO COUNTY,CHULA VISTA,91911,10505,ISO,Unknown,ATC,Light Fabrication and Assembly
-118.111092,33.792919,2021 TEVIS AVE,US,CA,LOS ANGELES COUNTY,LONG BEACH,90815,12290,ISO,Unknown,ATC,Light Fabrication and Assembly
-117.607986,34.089943,2026 E OLIVE CT,US,CA,SAN BERNARDINO COUNTY,ONTARIO,91764,13392,ISO,Unknown,ATC,Light Fabrication and Assembly
-122.611687,38.255062,2028 VISTA LN,US,CA,SONOMA COUNTY,PETALUMA,94954,10790,ISO,Unknown,ATC,Light Fabrication and Assembly
-117.608032,34.082569,2030 E MULBERRY CT,US,CA,SAN BERNARDINO COUNTY,ONTARIO,91764,13616,ISO,Unknown,ATC,Light Fabrication and Assembly
-122.242432,37.495144,204 G ST,US,CA,SAN MATEO COUNTY,REDWOOD CITY,94063,7192,ISO,Unknown,ATC,Light Fabrication and Assembly
-118.880135,34.209366,204 SIESTA AVE,US,CA,VENTURA COUNTY,THOUSAND OAKS,91360,25172,ISO,Unknown,ATC,Light Fabrication and Assembly
-118.880119,34.208038,2046 YOUNG AVE,US,CA,VENTURA COUNTY,THOUSAND OAKS,91360,13345,ISO,Unknown,ATC,Light Fabrication and Assembly
-117.606987,34.085152,2056 E ALONDRA ST,US,CA,SAN BERNARDINO COUNTY,ONTARIO,91764,13367,ISO,Unknown,ATC,Light Fabrication and Assembly
-118.957344,34.177509,21 KNOLLWOOD DR,US,CA,VENTURA COUNTY,NEWBURY PARK,91320,14080,ISO,Unknown,ATC,Light Fabrication and Assembly
-118.881546,34.213257,210 SANDBERG ST,US,CA,VENTURA COUNTY,THOUSAND OAKS,91360,20973,ISO,Unknown,ATC,Light Fabrication and Assembly
-118.374657,33.875496,2100 RUHLAND AVE,US,CA,LOS ANGELES COUNTY,REDONDO BEACH,90278,16650,ISO,Unknown,ATC,Light Fabrication and Assembly
-117.260040,32.949879,2104 EL AMIGO RD,US,CA,SAN DIEGO COUNTY,DEL MAR,92014,24990,ISO,Unknown,ATC,Light Fabrication and Assembly
-118.924210,34.176830,2120 PALOS CT,US,CA,VENTURA COUNTY,NEWBURY PARK,91320,27299,ISO,Unknown,ATC,Light Fabrication and Assembly
-118.864616,34.206585,2125 CALLE LILA,US,CA,VENTURA COUNTY,THOUSAND OAKS,91360,17993,ISO,Unknown,ATC,Light Fabrication and Assembly
-118.885345,34.215206,2144 SIRIUS ST,US,CA,VENTURA COUNTY,THOUSAND OAKS,91360,12636,ISO,Unknown,ATC,Light Fabrication and Assembly
-119.471359,35.139301,215 CHURCH ST,US,CA,KERN COUNTY,TAFT,93268,48965,ISO,Unknown,ATC,Light Fabrication and Assembly
-122.566406,38.069553,215 MONTURA WAY,US,CA,MARIN COUNTY,NOVATO,94949,20367,ISO,Unknown,ATC,Light Fabrication and Assembly
-118.861198,34.207352,2162 MONTGOMERY RD,US,CA,VENTURA COUNTY,THOUSAND OAKS,91360,19165,ISO,Unknown,ATC,Light Fabrication and Assembly
-120.369095,36.135434,217 CINDY LN,US,CA,FRESNO COUNTY,COALINGA,93210,28929,ISO,Unknown,ATC,Light Fabrication and Assembly
-118.864464,34.207119,2175 CALLE LILA,US,CA,VENTURA COUNTY,THOUSAND OAKS,91360,9672,ISO,Unknown,ATC,Light Fabrication and Assembly
-118.840538,34.190411,2178 MONTROSE DR,US,CA,VENTURA COUNTY,THOUSAND OAKS,91362,19991,ISO,Unknown,ATC,Light Fabrication and Assembly
-117.654877,35.619774,220 S BROADWAY ST,US,CA,KERN COUNTY,RIDGECREST,93555,16504,ISO,Unknown,ATC,Light Fabrication and Assembly
-117.673912,35.610291,220 W MARIPOSA AVE,US,CA,KERN COUNTY,RIDGECREST,93555,27596,ISO,Unknown,ATC,Light Fabrication and Assembly
-121.487617,38.535515,2204 18TH AVE,US,CA,SACRAMENTO COUNTY,SACRAMENTO,95822,6287,ISO,Unknown,ATC,Light Fabrication and Assembly
-118.371078,33.862900,2205 RIPLEY AVE,US,CA,LOS ANGELES COUNTY,REDONDO BEACH,90278,11029,ISO,Unknown,ATC,Light Fabrication and Assembly
-118.170616,34.664219,2211 W AVENUE K12,US,CA,LOS ANGELES COUNTY,LANCASTER,93536,23410,ISO,Unknown,ATC,Light Fabrication and Assembly
-118.871475,34.220478,222 WINDSONG ST,US,CA,VENTURA COUNTY,THOUSAND OAKS,91360,11083,ISO,Unknown,ATC,Light Fabrication and Assembly
-119.220314,35.788197,2230 RUFFINO CT,US,CA,KERN COUNTY,DELANO,93215,15350,ISO,Unknown,ATC,Light Fabrication and Assembly
-118.837051,34.211208,2238 SUMMERPARK CT,US,CA,VENTURA COUNTY,THOUSAND OAKS,91362,26369,ISO,Unknown,ATC,Light Fabrication and Assembly
-118.171623,34.665123,2238 W AVENUE K10,US,CA,LOS ANGELES COUNTY,LANCASTER,93536,13854,ISO,Unknown,ATC,Light Fabrication and Assembly
-120.182289,37.079117,22633 ROAD 20,US,CA,MADERA COUNTY,CHOWCHILLA,93610,16094,ISO,Unknown,ATC,Light Fabrication and Assembly
-118.835876,34.156307,2267 KNOLLCREST PL,US,CA,VENTURA COUNTY,WESTLAKE VILLAGE,91361,24906,ISO,Unknown,ATC,Light Fabrication and Assembly
-118.840233,34.181755,2282 RANCH VIEW PL,US,CA,VENTURA COUNTY,THOUSAND OAKS,91362,24519,ISO,Unknown,ATC,Light Fabrication and Assembly
-117.652504,35.619465,229 S GATEWAY BLVD,US,CA,KERN COUNTY,RIDGECREST,93555,25007,ISO,Unknown,ATC,Light Fabrication and Assembly
-122.705086,38.369270,230 FIRETHORN DR,US,CA,SONOMA COUNTY,ROHNERT PARK,94928,13876,ISO,Unknown,ATC,Light Fabrication and Assembly
-118.873405,34.210281,2305 DRAYTON AVE,US,CA,VENTURA COUNTY,THOUSAND OAKS,91360,20122,ISO,Unknown,ATC,Light Fabrication and Assembly
-118.368675,33.878220,2314 GATES AVE,US,CA,LOS ANGELES COUNTY,REDONDO BEACH,90278,23562,ISO,Unknown,ATC,Light Fabrication and Assembly
-119.289719,36.299435,232 E ARLEN AVE,US,CA,TULARE COUNTY,VISALIA,93277,33719,ISO,Unknown,ATC,Light Fabrication and Assembly
-117.195984,32.785343,2343 GARFIELD RD,US,CA,SAN DIEGO COUNTY,SAN DIEGO,92110,7699,ISO,Unknown,ATC,Light Fabrication and Assembly
-118.949501,34.175304,235 HENRIETTA AVE,US,CA,VENTURA COUNTY,NEWBURY PARK,91320,13539,ISO,Unknown,ATC,Light Fabrication and Assembly
-117.805321,34.024292,23711 PROSPECT VALLEY DR,US,CA,LOS ANGELES COUNTY,DIAMOND BAR,91765,13679,ISO,Unknown,ATC,Light Fabrication and Assembly
-118.871475,34.188271,238 GALSWORTHY ST,US,CA,VENTURA COUNTY,THOUSAND OAKS,91360,21648,ISO,Unknown,ATC,Light Fabrication and Assembly
-118.850891,34.210743,2391 CALLE ALUCEMA,US,CA,VENTURA COUNTY,THOUSAND OAKS,91360,27383,ISO,Unknown,ATC,Light Fabrication and Assembly
-119.220200,35.783421,2412 GONZALES CT,US,CA,KERN COUNTY,DELANO,93215,13470,ISO,Unknown,ATC,Light Fabrication and Assembly
-118.881401,34.209766,244 SIESTA AVE,US,CA,VENTURA COUNTY,THOUSAND OAKS,91360,7976,ISO,Unknown,ATC,Light Fabrication and Assembly
-119.302330,34.289513,245 W SIMPSON ST,US,CA,VENTURA COUNTY,VENTURA,93001,7250,ISO,Unknown,ATC,Light Fabrication and Assembly
-118.861580,34.211494,2455 CALLE RETAMA,US,CA,VENTURA COUNTY,THOUSAND OAKS,91360,8684,ISO,Unknown,ATC,Light Fabrication and Assembly
-117.711441,34.083778,246 MEREDITH ST,US,CA,LOS ANGELES COUNTY,CLAREMONT,91711,13730,ISO,Unknown,ATC,Light Fabrication and Assembly
-118.363396,33.860027,2517 SPRECKELS LN,US,CA,LOS ANGELES COUNTY,REDONDO BEACH,90278,14150,ISO,Unknown,ATC,Light Fabrication and Assembly
-118.555923,34.376354,25172 FOURL RD,US,CA,LOS ANGELES COUNTY,NEWHALL,91321,6419,ISO,Unknown,ATC,Light Fabrication and Assembly
-119.354202,35.590832,2519 9TH PL,US,CA,KERN COUNTY,WASCO,93280,21409,ISO,Unknown,ATC,Light Fabrication and Assembly
-118.878288,34.215576,2524 SIRIUS ST,US,CA,VENTURA COUNTY,THOUSAND OAKS,91360,13705,ISO,Unknown,ATC,Light Fabrication and Assembly
-117.596436,34.023945,2526 CANTERBURY TRL,US,CA,SAN BERNARDINO COUNTY,ONTARIO,91761,14554,ISO,Unknown,ATC,Light Fabrication and Assembly
-119.450539,36.578899,253 W LILAC AVE,US,CA,FRESNO COUNTY,REEDLEY,93654,19857,ISO,Unknown,ATC,Light Fabrication and Assembly
-118.486671,35.610966,2541 LUCERNE WAY,US,CA,KERN COUNTY,LAKE ISABELLA,93240,25365,ISO,Unknown,ATC,Light Fabrication and Assembly
-117.633034,34.026909,2550 S CUCAMONGA AVE,US,CA,SAN BERNARDINO COUNTY,ONTARIO,91761,13379,ISO,Unknown,ATC,Light Fabrication and Assembly
-118.473953,35.610542,2600 PINON ST,US,CA,KERN COUNTY,LAKE ISABELLA,93240,25796,ISO,Unknown,ATC,Light Fabrication and Assembly
-118.486382,35.611809,2617 LUCERNE WAY,US,CA,KERN COUNTY,LAKE ISABELLA,93240,26373,ISO,Unknown,ATC,Light Fabrication and Assembly
-118.898743,34.215694,2652 VELARDE DR,US,CA,VENTURA COUNTY,THOUSAND OAKS,91360,12881,ISO,Unknown,ATC,Light Fabrication and Assembly
-118.871323,34.215912,268 VENUS CT,US,CA,VENTURA COUNTY,THOUSAND OAKS,91360,10494,ISO,Unknown,ATC,Light Fabrication and Assembly
-118.899582,34.214943,2685 VELARDE DR,US,CA,VENTURA COUNTY,THOUSAND OAKS,91360,19368,ISO,Unknown,ATC,Light Fabrication and Assembly
-122.507523,37.915134,27 CREEKSIDE CT,US,CA,MARIN COUNTY,CORTE MADERA,94925,17680,ISO,Unknown,ATC,Light Fabrication and Assembly
-116.743993,33.370855,27035 CHIHUAHUA VALLEY RD,US,CA,SAN DIEGO COUNTY,WARNER SPRINGS,92086,22723,ISO,Unknown,ATC,Light Fabrication and Assembly
-118.159004,33.844597,2718 LOOMIS ST,US,CA,LOS ANGELES COUNTY,LAKEWOOD,90712,12419,ISO,Unknown,ATC,Light Fabrication and Assembly
-118.899719,34.215790,2719 GRANVIA PL,US,CA,VENTURA COUNTY,THOUSAND OAKS,91360,13667,ISO,Unknown,ATC,Light Fabrication and Assembly
-118.899086,34.215931,2720 GRANVIA PL,US,CA,VENTURA COUNTY,THOUSAND OAKS,91360,26786,ISO,Unknown,ATC,Light Fabrication and Assembly
-117.625183,34.024223,2726 S MILDRED PL,US,CA,SAN BERNARDINO COUNTY,ONTARIO,91761,13296,ISO,Unknown,ATC,Light Fabrication and Assembly
-122.306252,37.904919,2728 CARLSON BLVD,US,CA,CONTRA COSTA COUNTY,RICHMOND,94804,13606,ISO,Unknown,ATC,Light Fabrication and Assembly
-117.591225,34.023643,2731 S CYPRESS POINT PL,US,CA,SAN BERNARDINO COUNTY,ONTARIO,91761,18851,ISO,Unknown,ATC,Light Fabrication and Assembly
-117.626038,34.023750,2738 S DEL NORTE AVE,US,CA,SAN BERNARDINO COUNTY,ONTARIO,91761,13462,ISO,Unknown,ATC,Light Fabrication and Assembly
-118.870667,34.225685,274 RAMBLE RIDGE DR,US,CA,VENTURA COUNTY,THOUSAND OAKS,91360,22420,ISO,Unknown,ATC,Light Fabrication and Assembly
-117.184967,33.944115,27412 DARLENE DR,US,CA,RIVERSIDE COUNTY,MORENO VALLEY,92555,31895,ISO,Unknown,ATC,Light Fabrication and Assembly
-117.626060,34.023533,2744 S DEL NORTE AVE,US,CA,SAN BERNARDINO COUNTY,ONTARIO,91761,13387,ISO,Unknown,ATC,Light Fabrication and Assembly
-117.178406,33.508854,27449 COLT CT,US,CA,RIVERSIDE COUNTY,TEMECULA,92590,2075000,ISO,Steel Frame - Sup. EQ Resistive (3A),ATC,Wholesale Trade
-117.178406,33.508854,27449 COLT CT,US,CA,RIVERSIDE COUNTY,TEMECULA,92590,2075000,ISO,Steel Frame - Sup. EQ Resistive (3A),ATC,Wholesale Trade
-118.899139,34.216530,2756 GRANVIA PL,US,CA,VENTURA COUNTY,THOUSAND OAKS,91360,13579,ISO,Unknown,ATC,Light Fabrication and Assembly
-121.373276,36.824734,2760 VALLEY VIEW RD,US,CA,SAN BENITO COUNTY,HOLLISTER,95023,27952,ISO,Unknown,ATC,Light Fabrication and Assembly
-117.591621,34.019398,2774 COTTONWOOD TRL,US,CA,SAN BERNARDINO COUNTY,ONTARIO,91761,20520,ISO,Unknown,ATC,Light Fabrication and Assembly
-118.931236,34.182716,278 REDFIELD AVE,US,CA,VENTURA COUNTY,NEWBURY PARK,91320,19957,ISO,Unknown,ATC,Light Fabrication and Assembly
-122.054314,37.683495,2782 PEPPERWOOD PL,US,CA,ALAMEDA COUNTY,HAYWARD,94541,11811,ISO,Unknown,ATC,Light Fabrication and Assembly
-122.250092,37.854488,2807 WOOLSEY ST,US,CA,ALAMEDA COUNTY,BERKELEY,94705,14636,ISO,Unknown,ATC,Light Fabrication and Assembly
-118.182037,34.693001,2814 W NEWGROVE ST,US,CA,LOS ANGELES COUNTY,LANCASTER,93536,24268,ISO,Unknown,ATC,Light Fabrication and Assembly
-117.623726,34.022350,2829 S PARCO AVE,US,CA,SAN BERNARDINO COUNTY,ONTARIO,91761,18823,ISO,Unknown,ATC,Light Fabrication and Assembly
-117.820786,33.784519,283 S KATHLEEN LN,US,CA,ORANGE COUNTY,ORANGE,92869,24911,ISO,Unknown,ATC,Light Fabrication and Assembly
-118.102165,33.808071,2841 NIPOMO AVE,US,CA,LOS ANGELES COUNTY,LONG BEACH,90815,18800,ISO,Unknown,ATC,Light Fabrication and Assembly
-118.882599,34.210644,285 SIESTA AVE,US,CA,VENTURA COUNTY,THOUSAND OAKS,91360,27449,ISO,Unknown,ATC,Light Fabrication and Assembly
-118.892334,34.218212,2855 CALENDULA CT,US,CA,VENTURA COUNTY,THOUSAND OAKS,91360,12125,ISO,Unknown,ATC,Light Fabrication and Assembly
-118.892197,34.218819,2891 CALENDULA CT,US,CA,VENTURA COUNTY,THOUSAND OAKS,91360,11268,ISO,Unknown,ATC,Light Fabrication and Assembly
-118.867195,34.182072,291 FLITTNER CIR,US,CA,VENTURA COUNTY,THOUSAND OAKS,91360,17621,ISO,Unknown,ATC,Light Fabrication and Assembly
-118.766167,34.151566,29412 HILLRISE DR,US,CA,LOS ANGELES COUNTY,AGOURA HILLS,91301,14425,ISO,Unknown,ATC,Light Fabrication and Assembly
-118.866310,34.220531,2944 CAMINO CALANDRIA,US,CA,VENTURA COUNTY,THOUSAND OAKS,91360,34569,ISO,Unknown,ATC,Light Fabrication and Assembly
-118.199928,33.810921,2960 MAINE AVE,US,CA,LOS ANGELES COUNTY,LONG BEACH,90806,8158,ISO,Unknown,ATC,Light Fabrication and Assembly
-118.939766,34.179382,2976 CARMEN CT,US,CA,VENTURA COUNTY,NEWBURY PARK,91320,26928,ISO,Unknown,ATC,Light Fabrication and Assembly
-118.940132,34.182964,2976 MICHAEL DR,US,CA,VENTURA COUNTY,NEWBURY PARK,91320,13771,ISO,Unknown,ATC,Light Fabrication and Assembly
-118.940422,34.182926,2984 MICHAEL DR,US,CA,VENTURA COUNTY,NEWBURY PARK,91320,17782,ISO,Unknown,ATC,Light Fabrication and Assembly
-122.601295,38.235641,301 BOND AVE,US,CA,SONOMA COUNTY,PETALUMA,94954,21198,ISO,Unknown,ATC,Light Fabrication and Assembly
-119.446207,35.143892,304 E WOODROW ST,US,CA,KERN COUNTY,TAFT,93268,25859,ISO,Unknown,ATC,Light Fabrication and Assembly
-118.942978,34.174644,3076 WAUNETA ST,US,CA,VENTURA COUNTY,NEWBURY PARK,91320,17940,ISO,Unknown,ATC,Light Fabrication and Assembly
-118.870293,34.221046,3077 STARLING AVE,US,CA,VENTURA COUNTY,THOUSAND OAKS,91360,14508,ISO,Unknown,ATC,Light Fabrication and Assembly
-118.870781,34.202679,308 W COLUMBIA RD,US,CA,VENTURA COUNTY,THOUSAND OAKS,91360,24805,ISO,Unknown,ATC,Light Fabrication and Assembly
-119.052032,36.347790,30817 HILL DR,US,CA,TULARE COUNTY,EXETER,93221,22028,ISO,Unknown,ATC,Light Fabrication and Assembly
-118.858505,34.221317,3093 ROLLINGS AVE,US,CA,VENTURA COUNTY,THOUSAND OAKS,91360,13330,ISO,Unknown,ATC,Light Fabrication and Assembly
-118.899010,34.221954,3099 ROUNDUP CIR,US,CA,VENTURA COUNTY,THOUSAND OAKS,91360,13670,ISO,Unknown,ATC,Light Fabrication and Assembly
-118.858727,34.221722,3109 ROLLINGS AVE,US,CA,VENTURA COUNTY,THOUSAND OAKS,91360,13679,ISO,Unknown,ATC,Light Fabrication and Assembly
-119.445114,35.143433,311 E WOODROW ST,US,CA,KERN COUNTY,TAFT,93268,13776,ISO,Unknown,ATC,Light Fabrication and Assembly
-117.647209,34.125439,312 E RANGER CT,US,CA,SAN BERNARDINO COUNTY,UPLAND,91784,22954,ISO,Unknown,ATC,Light Fabrication and Assembly
-118.187035,34.665264,3142 DARKWOOD ST,US,CA,LOS ANGELES COUNTY,LANCASTER,93536,13087,ISO,Unknown,ATC,Light Fabrication and Assembly
-118.858963,34.222237,3153 ROLLINGS AVE,US,CA,VENTURA COUNTY,THOUSAND OAKS,91360,13563,ISO,Unknown,ATC,Light Fabrication and Assembly
-118.187187,34.643295,3158 W AVENUE M2,US,CA,LOS ANGELES COUNTY,LANCASTER,93536,27393,ISO,Unknown,ATC,Light Fabrication and Assembly
-118.870239,34.224247,317 PEPPERWOOD CT,US,CA,VENTURA COUNTY,THOUSAND OAKS,91360,27426,ISO,Unknown,ATC,Light Fabrication and Assembly
-118.900009,34.222690,3188 WILD HORSE CT,US,CA,VENTURA COUNTY,THOUSAND OAKS,91360,22025,ISO,Unknown,ATC,Light Fabrication and Assembly
-117.666374,35.617912,320 S GOLD CANYON ST,US,CA,KERN COUNTY,RIDGECREST,93555,23423,ISO,Unknown,ATC,Light Fabrication and Assembly
-118.830009,34.171482,3214 SIERRA DR,US,CA,VENTURA COUNTY,WESTLAKE VILLAGE,91362,17728,ISO,Unknown,ATC,Light Fabrication and Assembly
-118.154976,33.866684,3221 E CURRY ST,US,CA,LOS ANGELES COUNTY,LONG BEACH,90805,14463,ISO,Unknown,ATC,Light Fabrication and Assembly
-118.107567,33.815971,3226 PALO VERDE AVE,US,CA,LOS ANGELES COUNTY,LONG BEACH,90808,12199,ISO,Unknown,ATC,Light Fabrication and Assembly
-118.189209,34.670940,3234 W AVENUE K4,US,CA,LOS ANGELES COUNTY,LANCASTER,93536,12972,ISO,Unknown,ATC,Light Fabrication and Assembly
-118.960999,34.173157,324 RIDGEMONT CT,US,CA,VENTURA COUNTY,NEWBURY PARK,91320,13596,ISO,Unknown,ATC,Light Fabrication and Assembly
-118.868034,34.226246,3249 CALLE QUEBRACHO,US,CA,VENTURA COUNTY,THOUSAND OAKS,91360,16846,ISO,Unknown,ATC,Light Fabrication and Assembly
-117.157372,33.302010,32564 RANCHOS LADERA RD,US,CA,SAN DIEGO COUNTY,BONSALL,92003,20870,ISO,Unknown,ATC,Light Fabrication and Assembly
-118.872368,34.224808,3265 SPRING MEADOW AVE,US,CA,VENTURA COUNTY,THOUSAND OAKS,91360,12058,ISO,Unknown,ATC,Light Fabrication and Assembly
-119.452850,35.148399,327 MAPLE AVE,US,CA,KERN COUNTY,TAFT,93268,19383,ISO,Unknown,ATC,Light Fabrication and Assembly
-118.869888,34.226002,3276 INDEPENDENCE CT,US,CA,VENTURA COUNTY,THOUSAND OAKS,91360,26835,ISO,Unknown,ATC,Light Fabrication and Assembly
-119.443420,35.143101,328 E SAN EMIDIO ST,US,CA,KERN COUNTY,TAFT,93268,16040,ISO,Unknown,ATC,Light Fabrication and Assembly
-118.874420,34.224140,3287 HEATHERGLOW ST,US,CA,VENTURA COUNTY,THOUSAND OAKS,91360,16487,ISO,Unknown,ATC,Light Fabrication and Assembly
-118.870789,34.226383,3290 INDEPENDENCE CT,US,CA,VENTURA COUNTY,THOUSAND OAKS,91360,22035,ISO,Unknown,ATC,Light Fabrication and Assembly
-118.154381,33.865295,3301 E LA JARA ST,US,CA,LOS ANGELES COUNTY,LONG BEACH,90805,15322,ISO,Unknown,ATC,Light Fabrication and Assembly
-118.946220,34.189827,3301 GLORIA DR,US,CA,VENTURA COUNTY,NEWBURY PARK,91320,13750,ISO,Unknown,ATC,Light Fabrication and Assembly
-118.898247,34.224491,3312 BIG SKY DR,US,CA,VENTURA COUNTY,THOUSAND OAKS,91360,12618,ISO,Unknown,ATC,Light Fabrication and Assembly
-118.944733,34.163773,3320 CORNING ST,US,CA,VENTURA COUNTY,NEWBURY PARK,91320,23222,ISO,Unknown,ATC,Light Fabrication and Assembly
-118.896805,34.222359,3321 RAINBOW CREEK CIR,US,CA,VENTURA COUNTY,THOUSAND OAKS,91360,15333,ISO,Unknown,ATC,Light Fabrication and Assembly
-118.153984,33.867687,3330 E HARDING ST,US,CA,LOS ANGELES COUNTY,LONG BEACH,90805,13647,ISO,Unknown,ATC,Light Fabrication and Assembly
-118.946983,34.189987,3337 GLORIA DR,US,CA,VENTURA COUNTY,NEWBURY PARK,91320,11314,ISO,Unknown,ATC,Light Fabrication and Assembly
-122.725342,38.404236,335 OHAIR CT,US,CA,SONOMA COUNTY,SANTA ROSA,95407,2075000,ISO,Steel Frame - Sup. EQ Resistive (3A),ATC,Wholesale Trade
-122.725342,38.404236,335 OHAIR CT,US,CA,SONOMA COUNTY,SANTA ROSA,95407,2075000,ISO,Steel Frame - Sup. EQ Resistive (3A),ATC,Wholesale Trade
-119.473404,35.139297,337 PARKVIEW CIR,US,CA,KERN COUNTY,TAFT,93268,27016,ISO,Unknown,ATC,Light Fabrication and Assembly
-118.947510,34.186607,3388 LESSER DR,US,CA,VENTURA COUNTY,NEWBURY PARK,91320,6606,ISO,Unknown,ATC,Light Fabrication and Assembly
-122.070724,37.361103,3403 SHADY SPRING LN,US,CA,SANTA CLARA COUNTY,MOUNTAIN VIEW,94040,15073,ISO,Unknown,ATC,Light Fabrication and Assembly
-118.963562,34.173695,341 GREENWAY AVE,US,CA,VENTURA COUNTY,NEWBURY PARK,91320,15679,ISO,Unknown,ATC,Light Fabrication and Assembly
-118.948387,34.189827,3412 GLORIA DR,US,CA,VENTURA COUNTY,NEWBURY PARK,91320,16889,ISO,Unknown,ATC,Light Fabrication and Assembly
-118.948502,34.189323,3428 LILY CT,US,CA,VENTURA COUNTY,NEWBURY PARK,91320,23983,ISO,Unknown,ATC,Light Fabrication and Assembly
-118.066727,33.818363,3430 HALBRITE AVE,US,CA,LOS ANGELES COUNTY,LONG BEACH,90808,14486,ISO,Unknown,ATC,Light Fabrication and Assembly
-118.894516,34.227058,3487 INDIAN MESA DR,US,CA,VENTURA COUNTY,THOUSAND OAKS,91360,11981,ISO,Unknown,ATC,Light Fabrication and Assembly
-118.952438,34.174660,349 WALTER AVE,US,CA,VENTURA COUNTY,THOUSAND OAKS,91320,13592,ISO,Unknown,ATC,Light Fabrication and Assembly
-118.960670,34.172768,350 RIDGEMONT CT,US,CA,VENTURA COUNTY,NEWBURY PARK,91320,12902,ISO,Unknown,ATC,Light Fabrication and Assembly
-117.218796,32.745041,3507 WISTERIA DR,US,CA,SAN DIEGO COUNTY,SAN DIEGO,92106,11986,ISO,Unknown,ATC,Light Fabrication and Assembly
-118.150642,33.864506,3509 E HEDDA ST,US,CA,LOS ANGELES COUNTY,LONG BEACH,90805,17709,ISO,Unknown,ATC,Light Fabrication and Assembly
-118.961082,34.172485,351 RIDGEMONT CT,US,CA,VENTURA COUNTY,NEWBURY PARK,91320,15017,ISO,Unknown,ATC,Light Fabrication and Assembly
-117.653427,34.098499,352 N PALM AVE,US,CA,SAN BERNARDINO COUNTY,UPLAND,91786,27218,ISO,Unknown,ATC,Light Fabrication and Assembly
-118.951172,34.175171,3527 BAXTER ST,US,CA,VENTURA COUNTY,NEWBURY PARK,91320,8870,ISO,Unknown,ATC,Light Fabrication and Assembly
-118.962402,34.171928,355 DANVILLE AVE,US,CA,VENTURA COUNTY,THOUSAND OAKS,91320,20182,ISO,Unknown,ATC,Light Fabrication and Assembly
-118.963982,34.172264,355 GREENWAY AVE,US,CA,VENTURA COUNTY,NEWBURY PARK,91320,13666,ISO,Unknown,ATC,Light Fabrication and Assembly
-116.877602,34.441517,36005 SAGE ST,US,CA,SAN BERNARDINO COUNTY,LUCERNE VALLEY,92356,26913,ISO,Unknown,ATC,Light Fabrication and Assembly
-118.149467,33.865185,3613 E LA JARA ST,US,CA,LOS ANGELES COUNTY,LONG BEACH,90805,8063,ISO,Unknown,ATC,Light Fabrication and Assembly
-118.148933,33.843369,3623 ARBOR RD,US,CA,LOS ANGELES COUNTY,LAKEWOOD,90712,13153,ISO,Unknown,ATC,Light Fabrication and Assembly
-117.308320,33.704733,36290 Waxen Rd,US,CA,RIVERSIDE COUNTY,Lake Elsinore,92532,34490,ISO,Unknown,ATC,Light Fabrication and Assembly
-118.196190,34.686821,3640 W AVENUE J2,US,CA,LOS ANGELES COUNTY,LANCASTER,93536,17772,ISO,Unknown,ATC,Light Fabrication and Assembly
-118.960236,34.172733,365 LONGWOOD CT,US,CA,VENTURA COUNTY,NEWBURY PARK,91320,28879,ISO,Unknown,ATC,Light Fabrication and Assembly
-122.501648,37.981838,365 MARGARITA DR,US,CA,MARIN COUNTY,SAN RAFAEL,94901,20433,ISO,Unknown,ATC,Light Fabrication and Assembly
-118.869415,34.224232,365 PEPPERWOOD CT,US,CA,VENTURA COUNTY,THOUSAND OAKS,91360,12833,ISO,Unknown,ATC,Light Fabrication and Assembly
-117.724594,33.987354,3652 GARDEN CT,US,CA,SAN BERNARDINO COUNTY,CHINO HILLS,91709,17721,ISO,Unknown,ATC,Light Fabrication and Assembly
-118.869423,34.223793,366 PEPPERWOOD CT,US,CA,VENTURA COUNTY,THOUSAND OAKS,91360,12066,ISO,Unknown,ATC,Light Fabrication and Assembly
-116.468315,33.782848,36605 SUNAIR PLZ,US,CA,RIVERSIDE COUNTY,CATHEDRAL CITY,92234,2075000,ISO,Steel Frame - Sup. EQ Resistive (3A),ATC,Wholesale Trade
-116.468315,33.782848,36605 SUNAIR PLZ,US,CA,RIVERSIDE COUNTY,CATHEDRAL CITY,92234,2075000,ISO,Steel Frame - Sup. EQ Resistive (3A),ATC,Wholesale Trade
-118.064522,33.823750,3681 HALBRITE AVE,US,CA,LOS ANGELES COUNTY,LONG BEACH,90808,12863,ISO,Unknown,ATC,Light Fabrication and Assembly
-118.962463,34.171631,369 DANVILLE AVE,US,CA,VENTURA COUNTY,NEWBURY PARK,91320,22471,ISO,Unknown,ATC,Light Fabrication and Assembly
-117.571152,33.935444,3691 BROKEN FEATHER DR,US,CA,RIVERSIDE COUNTY,NORCO,92860,26765,ISO,Unknown,ATC,Light Fabrication and Assembly
-118.963234,34.171822,371 HAVENSIDE AVE,US,CA,VENTURA COUNTY,NEWBURY PARK,91320,24787,ISO,Unknown,ATC,Light Fabrication and Assembly
-117.723078,33.982269,3733 WHIRLAWAY LN,US,CA,SAN BERNARDINO COUNTY,CHINO HILLS,91709,16871,ISO,Unknown,ATC,Light Fabrication and Assembly
-118.198662,34.688965,3746 W AVENUE J,US,CA,LOS ANGELES COUNTY,LANCASTER,93536,27537,ISO,Unknown,ATC,Light Fabrication and Assembly
-118.123322,33.826641,3752 CHATWIN AVE,US,CA,LOS ANGELES COUNTY,LONG BEACH,90808,13883,ISO,Unknown,ATC,Light Fabrication and Assembly
-118.123856,33.826645,3755 CHATWIN AVE,US,CA,LOS ANGELES COUNTY,LONG BEACH,90808,12852,ISO,Unknown,ATC,Light Fabrication and Assembly
-118.964203,34.171230,379 GREENWAY AVE,US,CA,VENTURA COUNTY,NEWBURY PARK,91320,12040,ISO,Unknown,ATC,Light Fabrication and Assembly
-118.954979,34.161217,3807 ABBEY CT,US,CA,VENTURA COUNTY,NEWBURY PARK,91320,23071,ISO,Unknown,ATC,Light Fabrication and Assembly
-117.236664,32.735008,3844 MILAN ST,US,CA,SAN DIEGO COUNTY,SAN DIEGO,92107,34632,ISO,Unknown,ATC,Light Fabrication and Assembly
-118.201233,34.685989,3855 W AVENUE J4,US,CA,LOS ANGELES COUNTY,LANCASTER,93536,25042,ISO,Unknown,ATC,Light Fabrication and Assembly
-118.957520,34.176334,3875 MAYFIELD ST,US,CA,VENTURA COUNTY,NEWBURY PARK,91320,18071,ISO,Unknown,ATC,Light Fabrication and Assembly
-118.959297,34.187603,3900 CALLE ALTA VIS,US,CA,VENTURA COUNTY,NEWBURY PARK,91320,16162,ISO,Unknown,ATC,Light Fabrication and Assembly
-118.957977,34.176151,3905 MAYFIELD ST,US,CA,VENTURA COUNTY,NEWBURY PARK,91320,31758,ISO,Unknown,ATC,Light Fabrication and Assembly
-119.249138,36.317234,3907 E FEEMSTER AVE,US,CA,TULARE COUNTY,VISALIA,93292,20333,ISO,Unknown,ATC,Light Fabrication and Assembly
-118.958038,34.175285,3913 BUCKTHORN CT,US,CA,VENTURA COUNTY,NEWBURY PARK,91320,23499,ISO,Unknown,ATC,Light Fabrication and Assembly
-119.740631,36.748428,392 N SIERRA VISTA AVE,US,CA,FRESNO COUNTY,FRESNO,93702,18424,ISO,Unknown,ATC,Light Fabrication and Assembly
-117.718231,33.984049,3968 DRIFTWOOD ST,US,CA,SAN BERNARDINO COUNTY,CHINO HILLS,91709,11277,ISO,Unknown,ATC,Light Fabrication and Assembly
-122.284568,40.403440,3978 CAPEWOOD CT,US,CA,SHASTA COUNTY,COTTONWOOD,96022,27739,ISO,Unknown,ATC,Light Fabrication and Assembly
-118.958466,34.174652,3984 BUCKTHORN CT,US,CA,VENTURA COUNTY,NEWBURY PARK,91320,16413,ISO,Unknown,ATC,Light Fabrication and Assembly
-118.959091,34.181973,3997 SANTA MONICA CT,US,CA,VENTURA COUNTY,NEWBURY PARK,91320,17239,ISO,Unknown,ATC,Light Fabrication and Assembly
-122.595642,38.108143,4 GREGOR LN,US,CA,MARIN COUNTY,NOVATO,94947,15735,ISO,Unknown,ATC,Light Fabrication and Assembly
-117.764526,33.705601,4 LONGSTREET,US,CA,ORANGE COUNTY,IRVINE,92620,13616,ISO,Unknown,ATC,Light Fabrication and Assembly
-119.789567,36.748784,401 N ABBY ST,US,CA,FRESNO COUNTY,FRESNO,93701,13447,ISO,Unknown,ATC,Light Fabrication and Assembly
-118.989755,34.219252,4014 Camino Ranchero,US,CA,VENTURA COUNTY,Camarillo,93012,2075000,ISO,Steel Frame - Sup. EQ Resistive (3A),ATC,Wholesale Trade
-118.989755,34.219252,4014 Camino Ranchero,US,CA,VENTURA COUNTY,Camarillo,93012,2075000,ISO,Steel Frame - Sup. EQ Resistive (3A),ATC,Wholesale Trade
-119.320183,36.207352,402 MEADOWBROOK ST,US,CA,TULARE COUNTY,TULARE,93274,26666,ISO,Unknown,ATC,Light Fabrication and Assembly
-119.464157,35.137234,402 S 8TH ST,US,CA,KERN COUNTY,TAFT,93268,13640,ISO,Unknown,ATC,Light Fabrication and Assembly
-122.701973,38.257416,4040 SKILLMAN LN,US,CA,SONOMA COUNTY,PETALUMA,94952,22422,ISO,Unknown,ATC,Light Fabrication and Assembly
-117.677788,35.603977,405 CHRISTOPHER CT,US,CA,KERN COUNTY,RIDGECREST,93555,12831,ISO,Unknown,ATC,Light Fabrication and Assembly
-119.473694,35.142342,406 HILLARD ST,US,CA,KERN COUNTY,TAFT,93268,20509,ISO,Unknown,ATC,Light Fabrication and Assembly
-119.472290,35.142162,407 MCKINLEY ST,US,CA,KERN COUNTY,TAFT,93268,27183,ISO,Unknown,ATC,Light Fabrication and Assembly
-121.819870,39.709244,411 OTTERSON DR,US,CA,BUTTE COUNTY,CHICO,95928,2075000,ISO,Steel Frame - Sup. EQ Resistive (3A),ATC,Wholesale Trade
-121.819870,39.709244,411 OTTERSON DR,US,CA,BUTTE COUNTY,CHICO,95928,2075000,ISO,Steel Frame - Sup. EQ Resistive (3A),ATC,Wholesale Trade
-118.963776,34.157265,4194 GREENWOOD ST,US,CA,VENTURA COUNTY,NEWBURY PARK,91320,16847,ISO,Unknown,ATC,Light Fabrication and Assembly
-118.874016,34.205563,42 W COLUMBIA RD,US,CA,VENTURA COUNTY,THOUSAND OAKS,91360,18860,ISO,Unknown,ATC,Light Fabrication and Assembly
-122.599884,38.234825,420 CASA VERDE CIR,US,CA,SONOMA COUNTY,PETALUMA,94954,14708,ISO,Unknown,ATC,Light Fabrication and Assembly
-118.886986,34.221901,422 THUNDERHEAD ST,US,CA,VENTURA COUNTY,THOUSAND OAKS,91360,12552,ISO,Unknown,ATC,Light Fabrication and Assembly
-118.137657,33.835907,4251 FACULTY AVE,US,CA,LOS ANGELES COUNTY,LONG BEACH,90808,13918,ISO,Unknown,ATC,Light Fabrication and Assembly
-118.167595,34.663067,42918 21ST ST W,US,CA,LOS ANGELES COUNTY,LANCASTER,93536,19507,ISO,Unknown,ATC,Light Fabrication and Assembly
-118.966820,34.159050,4299 BLACKWOOD ST,US,CA,VENTURA COUNTY,NEWBURY PARK,91320,27207,ISO,Unknown,ATC,Light Fabrication and Assembly
-122.699463,38.371075,4300 HEATHER LN,US,CA,SONOMA COUNTY,ROHNERT PARK,94928,8682,ISO,Unknown,ATC,Light Fabrication and Assembly
-118.190315,34.665047,43020 MONTEMARTE CT,US,CA,LOS ANGELES COUNTY,LANCASTER,93536,22705,ISO,Unknown,ATC,Light Fabrication and Assembly
-118.168427,34.664726,43023 21ST ST W,US,CA,LOS ANGELES COUNTY,LANCASTER,93536,13882,ISO,Unknown,ATC,Light Fabrication and Assembly
-118.189880,34.665447,43039 ED HALLEY PL,US,CA,LOS ANGELES COUNTY,LANCASTER,93536,27502,ISO,Unknown,ATC,Light Fabrication and Assembly
-118.172554,34.667233,43166 23RD ST W,US,CA,LOS ANGELES COUNTY,LANCASTER,93536,14768,ISO,Unknown,ATC,Light Fabrication and Assembly
-122.599327,38.234516,432 CASA VERDE CIR,US,CA,SONOMA COUNTY,PETALUMA,94954,12382,ISO,Unknown,ATC,Light Fabrication and Assembly
-119.758057,37.169994,43480 CAVE STONE CT,US,CA,MADERA COUNTY,COARSEGOLD,93614,21849,ISO,Unknown,ATC,Light Fabrication and Assembly
-117.661560,35.618649,436 DEBRA LN,US,CA,KERN COUNTY,RIDGECREST,93555,13710,ISO,Unknown,ATC,Light Fabrication and Assembly
-122.156967,37.736938,440 BROADMOOR BLVD,US,CA,ALAMEDA COUNTY,SAN LEANDRO,94577,30306,ISO,Unknown,ATC,Light Fabrication and Assembly
-118.836853,35.205681,441 MONROE ST,US,CA,KERN COUNTY,ARVIN,93203,26791,ISO,Unknown,ATC,Light Fabrication and Assembly
-118.196678,34.684338,44114 37TH ST W,US,CA,LOS ANGELES COUNTY,LANCASTER,93536,14671,ISO,Unknown,ATC,Light Fabrication and Assembly
-118.130852,33.838448,4421 CHARLEMAGNE AVE,US,CA,LOS ANGELES COUNTY,LONG BEACH,90808,26179,ISO,Unknown,ATC,Light Fabrication and Assembly
-118.200554,34.688099,44312 SEDONA WAY,US,CA,LOS ANGELES COUNTY,LANCASTER,93536,18601,ISO,Unknown,ATC,Light Fabrication and Assembly
-118.198288,34.688862,44335 PALO VERDE ST,US,CA,LOS ANGELES COUNTY,LANCASTER,93536,29673,ISO,Unknown,ATC,Light Fabrication and Assembly
-118.197662,34.689129,44340 PALO VERDE ST,US,CA,LOS ANGELES COUNTY,LANCASTER,93536,17773,ISO,Unknown,ATC,Light Fabrication and Assembly
-118.847412,34.240952,4445 ZOCALO CIR,US,CA,VENTURA COUNTY,THOUSAND OAKS,91360,20972,ISO,Unknown,ATC,Light Fabrication and Assembly
-118.178955,34.693653,44622 OVERLAND AVE,US,CA,LOS ANGELES COUNTY,LANCASTER,93536,13891,ISO,Unknown,ATC,Light Fabrication and Assembly
-118.455925,35.597023,4480 ERSKINE CREEK RD,US,CA,KERN COUNTY,LAKE ISABELLA,93240,26232,ISO,Unknown,ATC,Light Fabrication and Assembly
-117.065575,33.473831,44929 TUDAL ST,US,CA,RIVERSIDE COUNTY,TEMECULA,92592,20449,ISO,Unknown,ATC,Light Fabrication and Assembly
-118.925812,34.179268,45 LUCAS CT,US,CA,VENTURA COUNTY,NEWBURY PARK,91320,13661,ISO,Unknown,ATC,Light Fabrication and Assembly
-118.162712,34.701965,45029 CAMOLIN AVE,US,CA,LOS ANGELES COUNTY,LANCASTER,93534,11344,ISO,Unknown,ATC,Light Fabrication and Assembly
-118.162148,34.702999,45116 CAMOLIN AVE,US,CA,LOS ANGELES COUNTY,LANCASTER,93534,17706,ISO,Unknown,ATC,Light Fabrication and Assembly
-118.161751,34.703156,45141 17TH ST W,US,CA,LOS ANGELES COUNTY,LANCASTER,93534,12201,ISO,Unknown,ATC,Light Fabrication and Assembly
-122.598129,38.234596,452 CASA VERDE CIR,US,CA,SONOMA COUNTY,PETALUMA,94954,15423,ISO,Unknown,ATC,Light Fabrication and Assembly
-118.811249,34.197742,4583 RAYBURN ST,US,CA,VENTURA COUNTY,WESTLAKE VILLAGE,91362,4781,ISO,Unknown,ATC,Light Fabrication and Assembly
-118.889969,34.220203,459 PERIWINKLE CT,US,CA,VENTURA COUNTY,THOUSAND OAKS,91360,15180,ISO,Unknown,ATC,Light Fabrication and Assembly
-118.212746,34.674007,4610 W AVENUE K1,US,CA,LOS ANGELES COUNTY,LANCASTER,93536,15538,ISO,Unknown,ATC,Light Fabrication and Assembly
-118.135292,33.842068,4627 SUNFIELD AVE,US,CA,LOS ANGELES COUNTY,LONG BEACH,90808,10706,ISO,Unknown,ATC,Light Fabrication and Assembly
-118.135292,33.842236,4633 SUNFIELD AVE,US,CA,LOS ANGELES COUNTY,LONG BEACH,90808,22240,ISO,Unknown,ATC,Light Fabrication and Assembly
-118.868950,34.188938,469 DRYDEN ST,US,CA,VENTURA COUNTY,THOUSAND OAKS,91360,13710,ISO,Unknown,ATC,Light Fabrication and Assembly
-119.865318,36.806519,4704 N SONORA AVE,US,CA,FRESNO COUNTY,FRESNO,93722,3075000,ISO,Steel Frame - Sup. EQ Resistive (3A),ATC,Wholesale Trade
-119.865318,36.806519,4704 N SONORA AVE,US,CA,FRESNO COUNTY,FRESNO,93722,3075000,ISO,Steel Frame - Sup. EQ Resistive (3A),ATC,Wholesale Trade
-118.129616,33.843491,4712 PEARCE AVE,US,CA,LOS ANGELES COUNTY,LONG BEACH,90808,23253,ISO,Unknown,ATC,Light Fabrication and Assembly
-118.137657,33.835056,4714 E WARWOOD RD,US,CA,LOS ANGELES COUNTY,LONG BEACH,90808,29890,ISO,Unknown,ATC,Light Fabrication and Assembly
-118.137657,33.835377,4715 E WARWOOD RD,US,CA,LOS ANGELES COUNTY,LONG BEACH,90808,11940,ISO,Unknown,ATC,Light Fabrication and Assembly
-121.924004,37.485470,47182 ARMATA ST,US,CA,ALAMEDA COUNTY,FREMONT,94539,7898,ISO,Unknown,ATC,Light Fabrication and Assembly
-118.959503,34.170620,473 KNOLLWOOD DR,US,CA,VENTURA COUNTY,NEWBURY PARK,91320,20833,ISO,Unknown,ATC,Light Fabrication and Assembly
-117.204401,32.876644,4747 EXECUTIVE DR,US,CA,SAN DIEGO COUNTY,SAN DIEGO,92121,10000,ISO,Steel Frame - Sup. EQ Resistive (3A),ATC,Wholesale Trade
-117.204401,32.876644,4747 EXECUTIVE DR,US,CA,SAN DIEGO COUNTY,SAN DIEGO,92121,10000,ISO,Steel Frame - Sup. EQ Resistive (3A),ATC,Wholesale Trade
-117.657196,34.123146,481 FREMONT ST,US,CA,SAN BERNARDINO COUNTY,UPLAND,91784,26671,ISO,Unknown,ATC,Light Fabrication and Assembly
-118.136810,33.836376,4811 E HARVEY WAY,US,CA,LOS ANGELES COUNTY,LONG BEACH,90808,9797,ISO,Unknown,ATC,Light Fabrication and Assembly
-118.127853,33.845619,4824 HERSHOLT AVE,US,CA,LOS ANGELES COUNTY,LONG BEACH,90808,10494,ISO,Unknown,ATC,Light Fabrication and Assembly
-118.869133,34.204624,486 KEVIN ST,US,CA,VENTURA COUNTY,THOUSAND OAKS,91360,18275,ISO,Unknown,ATC,Light Fabrication and Assembly
-118.907852,34.171178,490 RUDOLPH DR,US,CA,VENTURA COUNTY,NEWBURY PARK,91320,16028,ISO,Unknown,ATC,Light Fabrication and Assembly
-118.135429,33.836372,4917 E HARVEY WAY,US,CA,LOS ANGELES COUNTY,LONG BEACH,90808,13856,ISO,Unknown,ATC,Light Fabrication and Assembly
-122.598701,38.236298,499 CASA VERDE CIR,US,CA,SONOMA COUNTY,PETALUMA,94954,18929,ISO,Unknown,ATC,Light Fabrication and Assembly
-122.220589,37.452621,500 BUENA VISTA AVE,US,CA,SAN MATEO COUNTY,REDWOOD CITY,94061,6330,ISO,Unknown,ATC,Light Fabrication and Assembly
-118.890495,34.219509,500 PERIWINKLE CT,US,CA,VENTURA COUNTY,THOUSAND OAKS,91360,11037,ISO,Unknown,ATC,Light Fabrication and Assembly
-118.867088,34.195381,508 GLADSTONE DR,US,CA,VENTURA COUNTY,THOUSAND OAKS,91360,21811,ISO,Unknown,ATC,Light Fabrication and Assembly
-119.472649,35.144833,508 SHASTA ST,US,CA,KERN COUNTY,TAFT,93268,10438,ISO,Unknown,ATC,Light Fabrication and Assembly
-119.472244,35.144836,509 MCKINLEY ST,US,CA,KERN COUNTY,TAFT,93268,23299,ISO,Unknown,ATC,Light Fabrication and Assembly
-122.611237,38.256542,513 LINCOLN LN,US,CA,SONOMA COUNTY,PETALUMA,94954,13089,ISO,Unknown,ATC,Light Fabrication and Assembly
-122.028297,38.016941,5159 COMMERCIAL CIR,US,CA,CONTRA COSTA COUNTY,CONCORD,94520,2075000,ISO,Steel Frame - Sup. EQ Resistive (3A),ATC,Wholesale Trade
-122.028297,38.016941,5159 COMMERCIAL CIR,US,CA,CONTRA COSTA COUNTY,CONCORD,94520,2075000,ISO,Steel Frame - Sup. EQ Resistive (3A),ATC,Wholesale Trade
-117.529930,33.992031,5165 RIGEL WAY,US,CA,RIVERSIDE COUNTY,MIRA LOMA,91752,34535,ISO,Unknown,ATC,Light Fabrication and Assembly
-122.611038,38.256432,517 LINCOLN LN,US,CA,SONOMA COUNTY,PETALUMA,94954,13342,ISO,Unknown,ATC,Light Fabrication and Assembly
-117.673996,35.614361,519 S FAIRVIEW ST,US,CA,KERN COUNTY,RIDGECREST,93555,17485,ISO,Unknown,ATC,Light Fabrication and Assembly
-118.866920,34.195595,524 GLADSTONE DR,US,CA,VENTURA COUNTY,THOUSAND OAKS,91360,13401,ISO,Unknown,ATC,Light Fabrication and Assembly
-118.130081,33.843586,5248 E SANDWOOD ST,US,CA,LOS ANGELES COUNTY,LONG BEACH,90808,9678,ISO,Unknown,ATC,Light Fabrication and Assembly
-117.526100,33.989651,5318 LUCRETIA AVE,US,CA,RIVERSIDE COUNTY,MIRA LOMA,91752,27393,ISO,Unknown,ATC,Light Fabrication and Assembly
-122.624557,38.216419,541 PURRINGTON RD,US,CA,SONOMA COUNTY,PETALUMA,94952,19822,ISO,Unknown,ATC,Light Fabrication and Assembly
-117.644501,34.037247,542 E CEDAR ST,US,CA,SAN BERNARDINO COUNTY,ONTARIO,91761,13486,ISO,Unknown,ATC,Light Fabrication and Assembly
-120.075943,36.726364,547 WALNUT CT,US,CA,FRESNO COUNTY,KERMAN,93630,27795,ISO,Unknown,ATC,Light Fabrication and Assembly
-117.535118,33.988762,5470 SULPHUR DR,US,CA,RIVERSIDE COUNTY,MIRA LOMA,91752,41676,ISO,Unknown,ATC,Light Fabrication and Assembly
-117.711098,34.085777,550 CONVERSE AVE,US,CA,LOS ANGELES COUNTY,CLAREMONT,91711,13404,ISO,Unknown,ATC,Light Fabrication and Assembly
-117.534531,33.988049,5500 SULPHUR DR,US,CA,RIVERSIDE COUNTY,MIRA LOMA,91752,35614,ISO,Unknown,ATC,Light Fabrication and Assembly
-118.934959,34.185432,554 GILBERT ST,US,CA,VENTURA COUNTY,NEWBURY PARK,91320,16025,ISO,Unknown,ATC,Light Fabrication and Assembly
-118.035637,33.824944,5552 LIME AVE,US,CA,ORANGE COUNTY,CYPRESS,90630,12863,ISO,Unknown,ATC,Light Fabrication and Assembly
-118.034019,33.813625,5622 CYNTHIA LN,US,CA,ORANGE COUNTY,CYPRESS,90630,20819,ISO,Unknown,ATC,Light Fabrication and Assembly
-122.701958,38.358120,5709 DEXTER CIR,US,CA,SONOMA COUNTY,ROHNERT PARK,94928,20755,ISO,Unknown,ATC,Light Fabrication and Assembly
-118.867104,34.187534,574 COMBES AVE,US,CA,VENTURA COUNTY,THOUSAND OAKS,91360,11238,ISO,Unknown,ATC,Light Fabrication and Assembly
-118.867325,34.181816,584 BROSSARD DR,US,CA,VENTURA COUNTY,THOUSAND OAKS,91360,22387,ISO,Unknown,ATC,Light Fabrication and Assembly
-118.117790,33.815754,5840 E LANAI ST,US,CA,LOS ANGELES COUNTY,LONG BEACH,90808,13924,ISO,Unknown,ATC,Light Fabrication and Assembly
-118.118202,33.813580,5897 E PAGEANTRY ST,US,CA,LOS ANGELES COUNTY,LONG BEACH,90808,18801,ISO,Unknown,ATC,Light Fabrication and Assembly
-118.116203,33.812607,5940 E ADDERLEY DR,US,CA,LOS ANGELES COUNTY,LONG BEACH,90808,18748,ISO,Unknown,ATC,Light Fabrication and Assembly
-118.175659,33.863575,5947 GUNDRY AVE,US,CA,LOS ANGELES COUNTY,LONG BEACH,90805,18110,ISO,Unknown,ATC,Light Fabrication and Assembly
-118.175659,33.863804,5955 GUNDRY AVE,US,CA,LOS ANGELES COUNTY,LONG BEACH,90805,13723,ISO,Unknown,ATC,Light Fabrication and Assembly
-118.874252,34.206985,60 VAN DYKE ST,US,CA,VENTURA COUNTY,THOUSAND OAKS,91360,26801,ISO,Unknown,ATC,Light Fabrication and Assembly
-119.473244,35.139694,600 KEENE LN,US,CA,KERN COUNTY,TAFT,93268,28969,ISO,Unknown,ATC,Light Fabrication and Assembly
-117.675201,35.612114,600 S ALVORD ST,US,CA,KERN COUNTY,RIDGECREST,93555,20289,ISO,Unknown,ATC,Light Fabrication and Assembly
-119.476143,35.137169,600 WESTOVER AVE,US,CA,KERN COUNTY,TAFT,93268,18506,ISO,Unknown,ATC,Light Fabrication and Assembly
-117.658669,35.617313,604 E WILSON AVE,US,CA,KERN COUNTY,RIDGECREST,93555,14226,ISO,Unknown,ATC,Light Fabrication and Assembly
-119.476685,35.130322,610 WASHINGTON AVE,US,CA,KERN COUNTY,TAFT,93268,17731,ISO,Unknown,ATC,Light Fabrication and Assembly
-119.476723,35.137722,611 WESTOVER AVE,US,CA,KERN COUNTY,TAFT,93268,27458,ISO,Unknown,ATC,Light Fabrication and Assembly
-121.326469,37.953289,614 WILSHIRE AVE,US,CA,SAN JOAQUIN COUNTY,STOCKTON,95203,2075000,ISO,Steel Frame - Sup. EQ Resistive (3A),ATC,Wholesale Trade
-121.326469,37.953289,614 WILSHIRE AVE,US,CA,SAN JOAQUIN COUNTY,STOCKTON,95203,2075000,ISO,Steel Frame - Sup. EQ Resistive (3A),ATC,Wholesale Trade
-117.658066,35.617313,616 E WILSON AVE,US,CA,KERN COUNTY,RIDGECREST,93555,22576,ISO,Unknown,ATC,Light Fabrication and Assembly
-119.473907,35.140038,617 SUNSET LN,US,CA,KERN COUNTY,TAFT,93268,13625,ISO,Unknown,ATC,Light Fabrication and Assembly
-122.234261,39.791145,6173 COUNTY ROAD 4,US,CA,GLENN COUNTY,ORLAND,95963,8143,ISO,Unknown,ATC,Light Fabrication and Assembly
-122.696289,38.348953,6175 COUNTRY CLUB DR,US,CA,SONOMA COUNTY,ROHNERT PARK,94928,10122,ISO,Unknown,ATC,Light Fabrication and Assembly
-117.711098,34.084690,618 CONVERSE AVE,US,CA,LOS ANGELES COUNTY,CLAREMONT,91711,26799,ISO,Unknown,ATC,Light Fabrication and Assembly
-119.476715,35.138062,619 WESTOVER AVE,US,CA,KERN COUNTY,TAFT,93268,27979,ISO,Unknown,ATC,Light Fabrication and Assembly
-118.954597,34.176998,62 FALLBROOK AVE,US,CA,VENTURA COUNTY,NEWBURY PARK,91320,13701,ISO,Unknown,ATC,Light Fabrication and Assembly
-122.610390,38.250984,621 ALBERT WAY,US,CA,SONOMA COUNTY,PETALUMA,94954,13380,ISO,Unknown,ATC,Light Fabrication and Assembly
-117.657867,35.617668,621 BETH LN,US,CA,KERN COUNTY,RIDGECREST,93555,20392,ISO,Unknown,ATC,Light Fabrication and Assembly
-118.109085,33.771866,6223 E 5TH ST,US,CA,LOS ANGELES COUNTY,LONG BEACH,90803,27810,ISO,Unknown,ATC,Light Fabrication and Assembly
-117.688759,35.612530,624 S NEVADA ST,US,CA,KERN COUNTY,RIDGECREST,93555,135516,ISO,Unknown,ATC,Light Fabrication and Assembly
-117.585121,34.140400,6255 GRANBY AVE,US,CA,SAN BERNARDINO COUNTY,RCH CUCAMONGA,91737,13375,ISO,Unknown,ATC,Light Fabrication and Assembly
-118.110046,33.795040,6281 E EL PASEO ST,US,CA,LOS ANGELES COUNTY,LONG BEACH,90815,13887,ISO,Unknown,ATC,Light Fabrication and Assembly
-118.023064,33.839497,6291 CRESCENT AVE,US,CA,ORANGE COUNTY,BUENA PARK,90620,13724,ISO,Unknown,ATC,Light Fabrication and Assembly
-118.894463,34.216671,632 SAN DOVAL PL,US,CA,VENTURA COUNTY,THOUSAND OAKS,91360,11028,ISO,Unknown,ATC,Light Fabrication and Assembly
-122.609863,38.250713,633 ALBERT WAY,US,CA,SONOMA COUNTY,PETALUMA,94954,9449,ISO,Unknown,ATC,Light Fabrication and Assembly
-118.866867,34.217701,636 E AVENIDA DE LOS ARBOLES,US,CA,VENTURA COUNTY,THOUSAND OAKS,91360,13747,ISO,Unknown,ATC,Light Fabrication and Assembly
-118.863937,34.214630,640 CALLE TULIPAN,US,CA,VENTURA COUNTY,THOUSAND OAKS,91360,24564,ISO,Unknown,ATC,Light Fabrication and Assembly
-122.690811,38.345337,6404 AMBERWOOD ST,US,CA,SONOMA COUNTY,ROHNERT PARK,94928,23436,ISO,Unknown,ATC,Light Fabrication and Assembly
-122.691414,38.345203,6415 AMBERWOOD ST,US,CA,SONOMA COUNTY,ROHNERT PARK,94928,11823,ISO,Unknown,ATC,Light Fabrication and Assembly
-117.624947,34.137215,6450 CITRINE ST,US,CA,SAN BERNARDINO COUNTY,RANCHO CUCAMONGA,91701,14438,ISO,Unknown,ATC,Light Fabrication and Assembly
-122.689873,38.344666,6450 SEQUOIA ST,US,CA,SONOMA COUNTY,ROHNERT PARK,94928,33665,ISO,Unknown,ATC,Light Fabrication and Assembly
-118.754845,34.169571,6453 MAPLEGROVE ST,US,CA,VENTURA COUNTY,OAK PARK,91377,24226,ISO,Unknown,ATC,Light Fabrication and Assembly
-122.689873,38.344524,6462 SEQUOIA ST,US,CA,SONOMA COUNTY,ROHNERT PARK,94928,16563,ISO,Unknown,ATC,Light Fabrication and Assembly
-118.020370,33.792171,6478 PITCAIRN ST,US,CA,ORANGE COUNTY,CYPRESS,90630,27159,ISO,Unknown,ATC,Light Fabrication and Assembly
-117.686401,35.633514,649 SCOTT ST,US,CA,KERN COUNTY,RIDGECREST,93555,17783,ISO,Unknown,ATC,Light Fabrication and Assembly
-118.405269,35.635927,6501 PARK AVE,US,CA,KERN COUNTY,LAKE ISABELLA,93240,14210,ISO,Unknown,ATC,Light Fabrication and Assembly
-117.676979,34.101765,651 REDWOOD AVE,US,CA,SAN BERNARDINO COUNTY,UPLAND,91786,13421,ISO,Unknown,ATC,Light Fabrication and Assembly
-118.752983,34.169697,6558 MAPLEGROVE ST,US,CA,VENTURA COUNTY,OAK PARK,91377,18141,ISO,Unknown,ATC,Light Fabrication and Assembly
-122.244871,37.469307,659 UPTON ST,US,CA,SAN MATEO COUNTY,REDWOOD CITY,94061,17561,ISO,Unknown,ATC,Light Fabrication and Assembly
-119.851440,36.376673,6596 22ND AVE,US,CA,KINGS COUNTY,LEMOORE,93245,25200,ISO,Unknown,ATC,Light Fabrication and Assembly
-118.895386,34.216557,667 SAN DOVAL PL,US,CA,VENTURA COUNTY,THOUSAND OAKS,91360,20158,ISO,Unknown,ATC,Light Fabrication and Assembly
-117.614273,34.131893,6740 AMBER CT,US,CA,SAN BERNARDINO COUNTY,ALTA LOMA,91701,13375,ISO,Unknown,ATC,Light Fabrication and Assembly
-117.591370,34.131672,6752 LONDON AVE,US,CA,SAN BERNARDINO COUNTY,ALTA LOMA,91701,18199,ISO,Unknown,ATC,Light Fabrication and Assembly
-119.078323,35.314171,6801 MCDIVITT DR,US,CA,KERN COUNTY,BAKERSFIELD,93313,2075000,ISO,Steel Frame - Sup. EQ Resistive (3A),ATC,Wholesale Trade
-119.078323,35.314171,6801 MCDIVITT DR,US,CA,KERN COUNTY,BAKERSFIELD,93313,2075000,ISO,Steel Frame - Sup. EQ Resistive (3A),ATC,Wholesale Trade
-118.866211,34.186623,685 PAIGE LN,US,CA,VENTURA COUNTY,THOUSAND OAKS,91360,19053,ISO,Unknown,ATC,Light Fabrication and Assembly
-118.893227,34.221046,688 ZINNIA CT,US,CA,VENTURA COUNTY,THOUSAND OAKS,91360,17596,ISO,Unknown,ATC,Light Fabrication and Assembly
-117.673347,34.101971,691 SILVERWOOD AVE,US,CA,SAN BERNARDINO COUNTY,UPLAND,91786,12615,ISO,Unknown,ATC,Light Fabrication and Assembly
-118.097794,33.783371,6940 E BACARRO ST,US,CA,LOS ANGELES COUNTY,LONG BEACH,90815,17926,ISO,Unknown,ATC,Light Fabrication and Assembly
-118.097420,33.783676,6947 E BACARRO ST,US,CA,LOS ANGELES COUNTY,LONG BEACH,90815,11465,ISO,Unknown,ATC,Light Fabrication and Assembly
-117.605202,34.127644,6968 EASTWOOD AVE,US,CA,SAN BERNARDINO COUNTY,RCH CUCAMONGA,91701,13382,ISO,Unknown,ATC,Light Fabrication and Assembly
-119.460754,35.144917,700 LUCARD ST,US,CA,KERN COUNTY,TAFT,93268,13763,ISO,Unknown,ATC,Light Fabrication and Assembly
-117.582047,34.126869,7027 KINLOCK AVE,US,CA,SAN BERNARDINO COUNTY,RCH CUCAMONGA,91701,15761,ISO,Unknown,ATC,Light Fabrication and Assembly
-119.476463,35.136944,704 MALLORY CT,US,CA,KERN COUNTY,TAFT,93268,30689,ISO,Unknown,ATC,Light Fabrication and Assembly
-119.476707,35.136963,708 MALLORY CT,US,CA,KERN COUNTY,TAFT,93268,13778,ISO,Unknown,ATC,Light Fabrication and Assembly
-117.656013,35.627110,709 N SUNLAND DR,US,CA,KERN COUNTY,RIDGECREST,93555,17565,ISO,Unknown,ATC,Light Fabrication and Assembly
-117.675662,35.610838,709 S ALVORD ST,US,CA,KERN COUNTY,RIDGECREST,93555,25844,ISO,Unknown,ATC,Light Fabrication and Assembly
-118.381828,33.827171,710 AVENUE A,US,CA,LOS ANGELES COUNTY,REDONDO BEACH,90277,13338,ISO,Unknown,ATC,Light Fabrication and Assembly
-117.684036,35.632645,715 TRISHA CT,US,CA,KERN COUNTY,RIDGECREST,93555,17988,ISO,Unknown,ATC,Light Fabrication and Assembly
-117.677780,34.102779,717 BRENTWOOD AVE,US,CA,SAN BERNARDINO COUNTY,UPLAND,91786,13354,ISO,Unknown,ATC,Light Fabrication and Assembly
-118.865097,34.190838,718 TUDOR CIR,US,CA,VENTURA COUNTY,THOUSAND OAKS,91360,17358,ISO,Unknown,ATC,Light Fabrication and Assembly
-117.616966,34.123619,7186 SONOMA AVE,US,CA,SAN BERNARDINO COUNTY,ALTA LOMA,91701,13364,ISO,Unknown,ATC,Light Fabrication and Assembly
-118.155106,33.946411,7191 ADWEN ST,US,CA,LOS ANGELES COUNTY,DOWNEY,90241,13941,ISO,Unknown,ATC,Light Fabrication and Assembly
-122.597694,38.236649,720 SARTORI DR,US,CA,SONOMA COUNTY,PETALUMA,94954,7068,ISO,Unknown,ATC,Light Fabrication and Assembly
-117.577393,34.123123,7211 MARINE AVE,US,CA,SAN BERNARDINO COUNTY,RANCHO CUCAMONGA,91701,7812,ISO,Unknown,ATC,Light Fabrication and Assembly
-117.588448,34.120571,7352 BERKSHIRE AVE,US,CA,SAN BERNARDINO COUNTY,RANCHO CUCAMONGA,91730,21641,ISO,Unknown,ATC,Light Fabrication and Assembly
-117.579689,34.120007,7377 IVY LN,US,CA,SAN BERNARDINO COUNTY,RCH CUCAMONGA,91730,28825,ISO,Unknown,ATC,Light Fabrication and Assembly
-117.688393,35.609741,741 S DOWNS ST,US,CA,KERN COUNTY,RIDGECREST,93555,11453,ISO,Unknown,ATC,Light Fabrication and Assembly
-118.897453,34.216370,741 SAN DOVAL PL,US,CA,VENTURA COUNTY,THOUSAND OAKS,91360,10489,ISO,Unknown,ATC,Light Fabrication and Assembly
-117.582733,34.119022,7432 KINLOCK AVE,US,CA,SAN BERNARDINO COUNTY,RCH CUCAMONGA,91730,21422,ISO,Unknown,ATC,Light Fabrication and Assembly
-117.764359,34.073063,744 LOMA VISTA ST,US,CA,LOS ANGELES COUNTY,POMONA,91768,12659,ISO,Unknown,ATC,Light Fabrication and Assembly
-119.961143,36.724248,745 S ROLINDA AVE,US,CA,FRESNO COUNTY,FRESNO,93706,43244,ISO,Unknown,ATC,Light Fabrication and Assembly
-117.543579,34.118340,7467 FENNEL RD,US,CA,SAN BERNARDINO COUNTY,RANCHO CUCAMONGA,91739,13502,ISO,Unknown,ATC,Light Fabrication and Assembly
-117.591133,34.117886,7480 LONDON AVE,US,CA,SAN BERNARDINO COUNTY,RANCHO CUCAMONGA,91730,24442,ISO,Unknown,ATC,Light Fabrication and Assembly
-117.578921,34.117984,7488 SCOTT LN,US,CA,SAN BERNARDINO COUNTY,RCH CUCAMONGA,91730,13379,ISO,Unknown,ATC,Light Fabrication and Assembly
-118.864960,34.215996,750 CALLE NARANJO,US,CA,VENTURA COUNTY,THOUSAND OAKS,91360,13439,ISO,Unknown,ATC,Light Fabrication and Assembly
-117.672813,34.102703,752 SILVERWOOD AVE,US,CA,SAN BERNARDINO COUNTY,UPLAND,91786,13353,ISO,Unknown,ATC,Light Fabrication and Assembly
-117.590607,34.116959,7539 LONDON AVE,US,CA,SAN BERNARDINO COUNTY,RCH CUCAMONGA,91730,15028,ISO,Unknown,ATC,Light Fabrication and Assembly
-117.582848,34.116901,7543 LOCKHAVEN AVE,US,CA,SAN BERNARDINO COUNTY,RANCHO CUCAMONGA,91730,11031,ISO,Unknown,ATC,Light Fabrication and Assembly
-117.590256,34.116791,7548 PASITO AVE,US,CA,SAN BERNARDINO COUNTY,RCH CUCAMONGA,91730,13479,ISO,Unknown,ATC,Light Fabrication and Assembly
-117.591507,34.116596,7561 MALVEN AVE,US,CA,SAN BERNARDINO COUNTY,RCH CUCAMONGA,91730,13347,ISO,Unknown,ATC,Light Fabrication and Assembly
-117.592110,34.116421,7570 MALVEN AVE,US,CA,SAN BERNARDINO COUNTY,RCH CUCAMONGA,91730,12530,ISO,Unknown,ATC,Light Fabrication and Assembly
-117.578018,34.116276,7576 MARINE AVE,US,CA,SAN BERNARDINO COUNTY,RCH CUCAMONGA,91730,13382,ISO,Unknown,ATC,Light Fabrication and Assembly
-122.688202,38.332436,7601 MELODY DR,US,CA,SONOMA COUNTY,ROHNERT PARK,94928,10898,ISO,Unknown,ATC,Light Fabrication and Assembly
-117.578018,34.115479,7620 MARINE AVE,US,CA,SAN BERNARDINO COUNTY,RANCHO CUCAMONGA,91730,13373,ISO,Unknown,ATC,Light Fabrication and Assembly
-122.687767,38.332111,7623 MANDOLIN WAY,US,CA,SONOMA COUNTY,ROHNERT PARK,94928,22612,ISO,Unknown,ATC,Light Fabrication and Assembly
-117.586708,34.115398,7626 DARTMOUTH AVE,US,CA,SAN BERNARDINO COUNTY,RCH CUCAMONGA,91730,19743,ISO,Unknown,ATC,Light Fabrication and Assembly
-117.580139,34.115311,7630 CORNEL CT,US,CA,SAN BERNARDINO COUNTY,RCH CUCAMONGA,91730,23630,ISO,Unknown,ATC,Light Fabrication and Assembly
-117.578018,34.115280,7630 MARINE AVE,US,CA,SAN BERNARDINO COUNTY,RANCHO CUCAMONGA,91730,13386,ISO,Unknown,ATC,Light Fabrication and Assembly
-117.544540,34.115017,7639 HENBANE ST,US,CA,SAN BERNARDINO COUNTY,RCH CUCAMONGA,91739,15866,ISO,Unknown,ATC,Light Fabrication and Assembly
-118.863869,34.186062,764 BENSON WAY,US,CA,VENTURA COUNTY,THOUSAND OAKS,91360,12064,ISO,Unknown,ATC,Light Fabrication and Assembly
-117.598900,34.115093,7641 LAYTON ST,US,CA,SAN BERNARDINO COUNTY,RANCHO CUCAMONGA,91730,23186,ISO,Unknown,ATC,Light Fabrication and Assembly
-117.586708,34.114902,7654 DARTMOUTH AVE,US,CA,SAN BERNARDINO COUNTY,RCH CUCAMONGA,91730,13365,ISO,Unknown,ATC,Light Fabrication and Assembly
-117.609451,34.114925,7656 GARNET ST,US,CA,SAN BERNARDINO COUNTY,RANCHO CUCAMONGA,91730,16053,ISO,Unknown,ATC,Light Fabrication and Assembly
-122.192566,37.476231,767 14TH AVE,US,CA,SAN MATEO COUNTY,MENLO PARK,94025,11188,ISO,Unknown,ATC,Light Fabrication and Assembly
-117.274817,34.011826,7680 WINSHIP WAY,US,CA,RIVERSIDE COUNTY,COLTON,92324,27297,ISO,Unknown,ATC,Light Fabrication and Assembly
-117.544548,34.114143,7689 HENBANE ST,US,CA,SAN BERNARDINO COUNTY,RCH CUCAMONGA,91739,13673,ISO,Unknown,ATC,Light Fabrication and Assembly
-118.955116,34.176903,77 FALLBROOK AVE,US,CA,VENTURA COUNTY,NEWBURY PARK,91320,13619,ISO,Unknown,ATC,Light Fabrication and Assembly
-117.583839,34.113274,7741 MATTERHORN CT,US,CA,SAN BERNARDINO COUNTY,RANCHO CUCAMONGA,91730,22811,ISO,Unknown,ATC,Light Fabrication and Assembly
-117.597649,34.113174,7748 MALACHITE AVE,US,CA,SAN BERNARDINO COUNTY,RANCHO CUCAMONGA,91730,21301,ISO,Unknown,ATC,Light Fabrication and Assembly
-117.584396,34.113091,7750 MATTERHORN CT,US,CA,SAN BERNARDINO COUNTY,RCH CUCAMONGA,91730,23980,ISO,Unknown,ATC,Light Fabrication and Assembly
-117.604729,34.112446,7781 LION ST,US,CA,SAN BERNARDINO COUNTY,RCH CUCAMONGA,91730,13628,ISO,Unknown,ATC,Light Fabrication and Assembly
-118.865128,34.204987,780 OLD FARM RD,US,CA,VENTURA COUNTY,THOUSAND OAKS,91360,13450,ISO,Unknown,ATC,Light Fabrication and Assembly
-117.598701,34.110859,7888 AMETHYST AVE,US,CA,SAN BERNARDINO COUNTY,RANCHO CUCAMONGA,91730,13682,ISO,Unknown,ATC,Light Fabrication and Assembly
-117.616692,34.110401,7891 LITA CORTE,US,CA,SAN BERNARDINO COUNTY,RANCHO CUCAMONGA,91730,24893,ISO,Unknown,ATC,Light Fabrication and Assembly
-122.576279,37.977955,79 SCENIC AVE,US,CA,MARIN COUNTY,SAN ANSELMO,94960,12757,ISO,Unknown,ATC,Light Fabrication and Assembly
-117.583282,34.110069,7913 MALVERN AVE,US,CA,SAN BERNARDINO COUNTY,RANCHO CUCAMONGA,91730,16467,ISO,Unknown,ATC,Light Fabrication and Assembly
-117.588821,34.110031,7915 RAMONA AVE,US,CA,SAN BERNARDINO COUNTY,RANCHO CUCAMONGA,91730,13224,ISO,Unknown,ATC,Light Fabrication and Assembly
-122.018776,37.338272,794 LONDONDERRY DR,US,CA,SANTA CLARA COUNTY,SUNNYVALE,94087,13903,ISO,Unknown,ATC,Light Fabrication and Assembly
-118.149940,33.928188,7957 HONDO ST,US,CA,LOS ANGELES COUNTY,DOWNEY,90242,9780,ISO,Unknown,ATC,Light Fabrication and Assembly
-117.544670,34.108978,7973 HENBANE ST,US,CA,SAN BERNARDINO COUNTY,RANCHO CUCAMONGA,91739,13415,ISO,Unknown,ATC,Light Fabrication and Assembly
-122.681831,38.326546,8056 MITCHELL DR,US,CA,SONOMA COUNTY,ROHNERT PARK,94928,12629,ISO,Unknown,ATC,Light Fabrication and Assembly
-122.613472,38.242950,808 DANIEL DR,US,CA,SONOMA COUNTY,PETALUMA,94954,13441,ISO,Unknown,ATC,Light Fabrication and Assembly
-117.686180,35.604549,808 W BATAAN AVE,US,CA,KERN COUNTY,RIDGECREST,93555,37741,ISO,Unknown,ATC,Light Fabrication and Assembly
-122.270836,37.842892,810 ARLINGTON AVE,US,CA,ALAMEDA COUNTY,EMERYVILLE,94608,14907,ISO,Unknown,ATC,Light Fabrication and Assembly
-118.125084,33.954144,8129 DACOSTA ST,US,CA,LOS ANGELES COUNTY,DOWNEY,90240,26317,ISO,Unknown,ATC,Light Fabrication and Assembly
-117.599716,34.104500,8215 HELMS AVE,US,CA,SAN BERNARDINO COUNTY,RCH CUCAMONGA,91730,13444,ISO,Unknown,ATC,Light Fabrication and Assembly
-122.606667,38.247028,822 LOUISE DR,US,CA,SONOMA COUNTY,PETALUMA,94954,13434,ISO,Unknown,ATC,Light Fabrication and Assembly
-117.604019,34.104355,8223 MONTARA AVE,US,CA,SAN BERNARDINO COUNTY,RCH CUCAMONGA,91730,13318,ISO,Unknown,ATC,Light Fabrication and Assembly
-117.599716,34.103939,8245 HELMS AVE,US,CA,SAN BERNARDINO COUNTY,RCH CUCAMONGA,91730,13609,ISO,Unknown,ATC,Light Fabrication and Assembly
-117.582993,34.103886,8249 MALVERN AVE,US,CA,SAN BERNARDINO COUNTY,RCH CUCAMONGA,91730,13322,ISO,Unknown,ATC,Light Fabrication and Assembly
-122.595428,38.235939,825 SARTORI DR,US,CA,SONOMA COUNTY,PETALUMA,94954,13400,ISO,Unknown,ATC,Light Fabrication and Assembly
-117.600266,34.103546,8264 HELMS AVE,US,CA,SAN BERNARDINO COUNTY,RANCHO CUCAMONGA,91730,13647,ISO,Unknown,ATC,Light Fabrication and Assembly
-117.599716,34.103565,8265 HELMS AVE,US,CA,SAN BERNARDINO COUNTY,RANCHO CUCAMONGA,91730,13483,ISO,Unknown,ATC,Light Fabrication and Assembly
-118.899940,34.220043,827 BRIGHT STAR ST,US,CA,VENTURA COUNTY,THOUSAND OAKS,91360,13761,ISO,Unknown,ATC,Light Fabrication and Assembly
-117.599716,34.103378,8277 HELMS AVE,US,CA,SAN BERNARDINO COUNTY,RANCHO CUCAMONGA,91730,27255,ISO,Unknown,ATC,Light Fabrication and Assembly
-118.064796,33.819492,8287 E ELLERFORD ST,US,CA,LOS ANGELES COUNTY,LONG BEACH,90808,27721,ISO,Unknown,ATC,Light Fabrication and Assembly
-117.601128,34.103165,8290 ONYX AVE,US,CA,SAN BERNARDINO COUNTY,RCH CUCAMONGA,91730,18074,ISO,Unknown,ATC,Light Fabrication and Assembly
-118.923988,34.179737,83 N MADRID AVE,US,CA,VENTURA COUNTY,NEWBURY PARK,91320,13523,ISO,Unknown,ATC,Light Fabrication and Assembly
-117.604088,34.101814,8366 MONTARA AVE,US,CA,SAN BERNARDINO COUNTY,RANCHO CUCAMONGA,91730,21679,ISO,Unknown,ATC,Light Fabrication and Assembly
-117.622505,34.093460,8384 MAIN ST,US,CA,SAN BERNARDINO COUNTY,RANCHO CUCAMONGA,91730,13466,ISO,Unknown,ATC,Light Fabrication and Assembly
-117.623344,34.101467,8387 EDWIN ST,US,CA,SAN BERNARDINO COUNTY,RANCHO CUCAMONGA,91730,18093,ISO,Unknown,ATC,Light Fabrication and Assembly
-117.622322,34.092903,8395 MAIN ST,US,CA,SAN BERNARDINO COUNTY,RCH CUCAMONGA,91730,9481,ISO,Unknown,ATC,Light Fabrication and Assembly
-117.602631,34.100967,8415 AVENIDA CASTRO,US,CA,SAN BERNARDINO COUNTY,RCH CUCAMONGA,91730,12509,ISO,Unknown,ATC,Light Fabrication and Assembly
-117.602631,34.100784,8425 AVENIDA CASTRO,US,CA,SAN BERNARDINO COUNTY,RCH CUCAMONGA,91730,21646,ISO,Unknown,ATC,Light Fabrication and Assembly
-117.596970,34.100529,8435 MALACHITE AVE,US,CA,SAN BERNARDINO COUNTY,RCH CUCAMONGA,91730,22000,ISO,Unknown,ATC,Light Fabrication and Assembly
-118.900589,34.219830,844 BRIGHT STAR ST,US,CA,VENTURA COUNTY,THOUSAND OAKS,91360,13764,ISO,Unknown,ATC,Light Fabrication and Assembly
-117.596992,34.100349,8441 MALACHITE AVE,US,CA,SAN BERNARDINO COUNTY,RANCHO CUCAMONGA,91730,20485,ISO,Unknown,ATC,Light Fabrication and Assembly
-117.620720,34.092880,8465 MAIN ST,US,CA,SAN BERNARDINO COUNTY,RANCHO CUCAMONGA,91730,12628,ISO,Unknown,ATC,Light Fabrication and Assembly
-117.589256,34.097378,8605 RAMONA AVE,US,CA,SAN BERNARDINO COUNTY,RCH CUCAMONGA,91730,13326,ISO,Unknown,ATC,Light Fabrication and Assembly
-118.900772,34.220341,861 BRIGHT STAR ST,US,CA,VENTURA COUNTY,THOUSAND OAKS,91360,9575,ISO,Unknown,ATC,Light Fabrication and Assembly
-118.863609,34.192699,863 CHELTERHAM CIR,US,CA,VENTURA COUNTY,THOUSAND OAKS,91360,20696,ISO,Unknown,ATC,Light Fabrication and Assembly
-117.589905,34.096882,8632 RAMONA AVE,US,CA,SAN BERNARDINO COUNTY,RCH CUCAMONGA,91730,21120,ISO,Unknown,ATC,Light Fabrication and Assembly
-117.616554,34.125233,8678 LA PAIX ST,US,CA,SAN BERNARDINO COUNTY,ALTA LOMA,91701,11840,ISO,Unknown,ATC,Light Fabrication and Assembly
-118.862938,34.232346,873 CALLE PINATA,US,CA,VENTURA COUNTY,THOUSAND OAKS,91360,26405,ISO,Unknown,ATC,Light Fabrication and Assembly
-118.874100,34.189137,873 SHEFFIELD PL,US,CA,VENTURA COUNTY,THOUSAND OAKS,91360,14497,ISO,Unknown,ATC,Light Fabrication and Assembly
-118.862396,34.195702,874 BURY CIR,US,CA,VENTURA COUNTY,THOUSAND OAKS,91360,27280,ISO,Unknown,ATC,Light Fabrication and Assembly
-118.864182,34.192501,874 CHELTERHAM CIR,US,CA,VENTURA COUNTY,THOUSAND OAKS,91360,16095,ISO,Unknown,ATC,Light Fabrication and Assembly
-118.944099,34.189621,875 VERNA AVE,US,CA,VENTURA COUNTY,NEWBURY PARK,91320,27263,ISO,Unknown,ATC,Light Fabrication and Assembly
-117.622147,34.094757,8754 HYACINTH ST,US,CA,SAN BERNARDINO COUNTY,RANCHO CUCAMONGA,91730,4740,ISO,Unknown,ATC,Light Fabrication and Assembly
-117.623459,34.094635,8759 EDWIN ST,US,CA,SAN BERNARDINO COUNTY,RANCHO CUCAMONGA,91730,13369,ISO,Unknown,ATC,Light Fabrication and Assembly
-118.939690,34.177296,88 CINDY AVE,US,CA,VENTURA COUNTY,NEWBURY PARK,91320,31883,ISO,Unknown,ATC,Light Fabrication and Assembly
-122.699371,38.356037,892 SANTA DOROTEA CIR,US,CA,SONOMA COUNTY,ROHNERT PARK,94928,23460,ISO,Unknown,ATC,Light Fabrication and Assembly
-122.661095,38.224510,9 BIXBY CT,US,CA,SONOMA COUNTY,PETALUMA,94952,22082,ISO,Unknown,ATC,Light Fabrication and Assembly
-118.862839,34.213779,911 CALLE NOGAL,US,CA,VENTURA COUNTY,THOUSAND OAKS,91360,24045,ISO,Unknown,ATC,Light Fabrication and Assembly
-117.690735,35.606831,912 S YORKTOWN ST,US,CA,KERN COUNTY,RIDGECREST,93555,13907,ISO,Unknown,ATC,Light Fabrication and Assembly
-117.645409,34.105438,913 N 4TH AVE,US,CA,SAN BERNARDINO COUNTY,UPLAND,91786,13583,ISO,Unknown,ATC,Light Fabrication and Assembly
-117.605820,34.113194,9130 HEMLOCK ST,US,CA,SAN BERNARDINO COUNTY,RCH CUCAMONGA,91730,13364,ISO,Unknown,ATC,Light Fabrication and Assembly
-118.924324,34.179760,92 NORTHAM AVE,US,CA,VENTURA COUNTY,NEWBURY PARK,91320,34358,ISO,Unknown,ATC,Light Fabrication and Assembly
-121.482910,38.649841,920 STRIKER AVE,US,CA,SACRAMENTO COUNTY,SACRAMENTO,95834,2075000,ISO,Steel Frame - Sup. EQ Resistive (3A),ATC,Wholesale Trade
-121.482910,38.649841,920 STRIKER AVE,US,CA,SACRAMENTO COUNTY,SACRAMENTO,95834,2075000,ISO,Steel Frame - Sup. EQ Resistive (3A),ATC,Wholesale Trade
-118.901024,34.179821,920 W MARCELLO AVE,US,CA,VENTURA COUNTY,NEWBURY PARK,91320,13439,ISO,Unknown,ATC,Light Fabrication and Assembly
-118.028725,33.827301,9292 LIME CIR,US,CA,ORANGE COUNTY,CYPRESS,90630,12787,ISO,Unknown,ATC,Light Fabrication and Assembly
-117.601280,34.099594,9345 CALLE VEJAR,US,CA,SAN BERNARDINO COUNTY,RCH CUCAMONGA,91730,13481,ISO,Unknown,ATC,Light Fabrication and Assembly
-117.695981,35.606458,937 PORTER ST,US,CA,KERN COUNTY,RIDGECREST,93555,22092,ISO,Unknown,ATC,Light Fabrication and Assembly
-117.600662,34.113934,9375 CHURCH ST,US,CA,SAN BERNARDINO COUNTY,RCH CUCAMONGA,91730,27264,ISO,Unknown,ATC,Light Fabrication and Assembly
-122.060326,37.364124,943 ROBIN WAY,US,CA,SANTA CLARA COUNTY,SUNNYVALE,94087,13918,ISO,Unknown,ATC,Light Fabrication and Assembly
-117.599220,34.100067,9438 CALLE VEJAR,US,CA,SAN BERNARDINO COUNTY,RANCHO CUCAMONGA,91730,13425,ISO,Unknown,ATC,Light Fabrication and Assembly
-117.598595,34.100067,9468 CALLE VEJAR,US,CA,SAN BERNARDINO COUNTY,RCH CUCAMONGA,91730,31221,ISO,Unknown,ATC,Light Fabrication and Assembly
-117.664314,34.118118,947 W 15TH ST,US,CA,SAN BERNARDINO COUNTY,UPLAND,91786,33974,ISO,Unknown,ATC,Light Fabrication and Assembly
-117.597755,34.117535,9510 BALSA ST,US,CA,SAN BERNARDINO COUNTY,RANCHO CUCAMONGA,91730,8826,ISO,Unknown,ATC,Light Fabrication and Assembly
-117.597656,34.102436,9512 PLACER ST,US,CA,SAN BERNARDINO COUNTY,RCH CUCAMONGA,91730,16579,ISO,Unknown,ATC,Light Fabrication and Assembly
-117.256714,32.810925,963 ARCHER ST,US,CA,SAN DIEGO COUNTY,SAN DIEGO,92109,22430,ISO,Unknown,ATC,Light Fabrication and Assembly
-122.623451,38.225048,97 MISSION DR,US,CA,SONOMA COUNTY,PETALUMA,94952,18409,ISO,Unknown,ATC,Light Fabrication and Assembly
-118.861565,34.209179,973 CALLE MARGARITA,US,CA,VENTURA COUNTY,THOUSAND OAKS,91360,6330,ISO,Unknown,ATC,Light Fabrication and Assembly
-117.590881,34.117805,9823 PALO ALTO ST,US,CA,SAN BERNARDINO COUNTY,RCH CUCAMONGA,91730,13332,ISO,Unknown,ATC,Light Fabrication and Assembly
-117.590752,34.116001,9825 CANDLEWOOD ST,US,CA,SAN BERNARDINO COUNTY,RCH CUCAMONGA,91730,14215,ISO,Unknown,ATC,Light Fabrication and Assembly
-118.081001,33.949417,9847 PIONEER BLVD,US,CA,LOS ANGELES COUNTY,SANTA FE SPRINGS,90670,2075000,ISO,Steel Frame - Sup. EQ Resistive (3A),ATC,Wholesale Trade
-118.081001,33.949417,9847 PIONEER BLVD,US,CA,LOS ANGELES COUNTY,SANTA FE SPRINGS,90670,2075000,ISO,Steel Frame - Sup. EQ Resistive (3A),ATC,Wholesale Trade
-117.590218,34.117836,9849 PALO ALTO ST,US,CA,SAN BERNARDINO COUNTY,RCH CUCAMONGA,91730,10271,ISO,Unknown,ATC,Light Fabrication and Assembly
-118.861671,34.207752,990 E AVENIDA DE LAS FLORES,US,CA,VENTURA COUNTY,THOUSAND OAKS,91360,14875,ISO,Unknown,ATC,Light Fabrication and Assembly
-117.588104,34.129913,9959 HOLLY ST,US,CA,SAN BERNARDINO COUNTY,RCH CUCAMONGA,91701,25917,ISO,Unknown,ATC,Light Fabrication and Assembly
-117.587494,34.142235,9975 BANYAN ST,US,CA,SAN BERNARDINO COUNTY,RANCHO CUCAMONGA,91737,19335,ISO,Unknown,ATC,Light Fabrication and Assembly